{"type":"FeatureCollection","features":[{"type":"Feature","id":"way/56068111","properties":{"type":"way","id":56068111,"tags":{"building":"yes"},"relations":[],"meta":{}},"geometry":{"type":"Polygon","coordinates":[[[50.6007404,26.2128344],[50.600853,26.2125601],[50.6012178,26.2125216],[50.6014002,26.2127141],[50.6012768,26.2129981],[50.6009228,26.213051],[50.6007404,26.2128344]]]}},{"type":"Feature","id":"way/56068444","properties":{"type":"way","id":56068444,"tags":{"building":"yes","source":"Yahoo"},"relations":[],"meta":{}},"geometry":{"type":"Polygon","coordinates":[[[50.5996242,26.2302858],[50.599636,26.2299092],[50.5997952,26.2299132],[50.5997834,26.2302898],[50.5996242,26.2302858]]]}},{"type":"Feature","id":"way/61367034","properties":{"type":"way","id":61367034,"tags":{"building":"mall","landuse":"retail","name":"Bahrain Mall","name:ar":"مجمّع البحرين","shop":"mall","website":"http://www.thebahrainmall.com/","wikidata":"Q7715343"},"relations":[],"meta":{}},"geometry":{"type":"Polygon","coordinates":[[[50.5359252,26.2296903],[50.5359215,26.2290408],[50.5365565,26.2290379],[50.5365561,26.2289722],[50.5366317,26.2289718],[50.5366312,26.2288855],[50.5367014,26.2288852],[50.5367008,26.2287749],[50.5368142,26.2287744],[50.536813,26.2285634],[50.5369644,26.2285627],[50.5369638,26.2284622],[50.5370874,26.2284616],[50.537087,26.2283916],[50.5376038,26.2283892],[50.5379135,26.2283878],[50.5379137,26.2284236],[50.5380259,26.2284231],[50.5380265,26.2285306],[50.5385364,26.2285282],[50.5385457,26.2301565],[50.5377686,26.2301601],[50.5368128,26.2301645],[50.5368119,26.2300091],[50.5368115,26.229939],[50.5367282,26.2299393],[50.5367276,26.229838],[50.5366421,26.2298384],[50.5366417,26.2297657],[50.5365405,26.2297662],[50.53654,26.2296875],[50.5359252,26.2296903]]]}},{"type":"Feature","id":"way/61402682","properties":{"type":"way","id":61402682,"tags":{"building":"mall","landuse":"retail","name":"Al Aali Complex","shop":"mall","website":"http://www.alaalicomplex.com/"},"relations":[],"meta":{}},"geometry":{"type":"Polygon","coordinates":[[[50.5406256,26.2336294],[50.5405489,26.2335632],[50.5404855,26.2336003],[50.5404129,26.233619],[50.5403396,26.2336264],[50.5402531,26.2336203],[50.5401711,26.233593],[50.5401102,26.2335469],[50.5399537,26.2336779],[50.5400067,26.23373],[50.5399999,26.2343089],[50.539332,26.2343044],[50.5393321,26.2337844],[50.5394357,26.2336944],[50.5394318,26.2336223],[50.5393258,26.2335397],[50.539328,26.2333787],[50.5395942,26.2331255],[50.5397507,26.2332681],[50.5399297,26.2331058],[50.5398057,26.2330056],[50.5399197,26.2328966],[50.5395543,26.2325649],[50.5397302,26.2324261],[50.5397905,26.2324166],[50.5398379,26.2324207],[50.5398873,26.2324415],[50.5401985,26.2327159],[50.540281,26.2326545],[50.5403594,26.2326578],[50.5404361,26.2327295],[50.5407149,26.2324854],[50.5409527,26.2324894],[50.54095,26.2325584],[50.5410293,26.2326275],[50.5410284,26.2327171],[50.540743,26.2329834],[50.5409547,26.2331843],[50.5408788,26.2332445],[50.5409687,26.233327],[50.540974,26.2336305],[50.5406256,26.2336294]]]}},{"type":"Feature","id":"way/61402688","properties":{"type":"way","id":61402688,"tags":{"building":"mall","landuse":"retail","name":"Seef Mall","name:ar":"مجمع السيف","shop":"mall","website":"http://www.seef.net/","wikidata":"Q7445722","wikipedia":"en:Seef Mall"},"relations":[],"meta":{}},"geometry":{"type":"Polygon","coordinates":[[[50.5357608,26.2323429],[50.5357466,26.233292],[50.5357305,26.2333834],[50.5356393,26.2334412],[50.5344323,26.233446],[50.534368,26.2334364],[50.5342875,26.2333786],[50.534266,26.2327194],[50.5343465,26.2324692],[50.5345772,26.2321805],[50.5348722,26.231911],[50.5352259,26.2318657],[50.5377999,26.2318756],[50.5377994,26.2319902],[50.5381856,26.2319917],[50.5381858,26.2319517],[50.5385879,26.2319533],[50.5385939,26.2318533],[50.5390671,26.2318438],[50.5391562,26.2319263],[50.5391489,26.2329915],[50.5386285,26.2329917],[50.5386306,26.2334153],[50.5380258,26.2334238],[50.5378593,26.2332864],[50.5372269,26.2332862],[50.5372288,26.2325319],[50.5370052,26.232338],[50.5357608,26.2323429]]]}},{"type":"Feature","id":"way/61419899","properties":{"type":"way","id":61419899,"tags":{"amenity":"bank","building":"yes","name":"Citi Bank","source":"Yahoo"},"relations":[],"meta":{}},"geometry":{"type":"Polygon","coordinates":[[[50.5427998,26.2341713],[50.5429285,26.234152],[50.5430894,26.2340943],[50.5432075,26.2340366],[50.5432504,26.2339307],[50.5434649,26.2339403],[50.5434542,26.2340366],[50.5433577,26.2341713],[50.5431538,26.2342675],[50.54295,26.2343253],[50.5427998,26.2343349],[50.5427998,26.2341713]]]}},{"type":"Feature","id":"way/61419932","properties":{"type":"way","id":61419932,"tags":{"building":"yes","name":"Toys R Us","shop":"toys","source":"Yahoo"},"relations":[],"meta":{}},"geometry":{"type":"Polygon","coordinates":[[[50.5388998,26.2341001],[50.5383902,26.2340971],[50.5383902,26.2337921],[50.5384277,26.2337921],[50.5384277,26.2336862],[50.5390447,26.2336862],[50.5390447,26.2341001],[50.5388998,26.2341001]]]}},{"type":"Feature","id":"way/61419937","properties":{"type":"way","id":61419937,"tags":{"amenity":"restaurant","building":"yes","name":"Chillis","source":"Yahoo"},"relations":[],"meta":{}},"geometry":{"type":"Polygon","coordinates":[[[50.5374997,26.2340077],[50.5374997,26.2337238],[50.5377196,26.2337238],[50.5377197,26.2340077],[50.5374997,26.2340077]]]}},{"type":"Feature","id":"way/61689845","properties":{"type":"way","id":61689845,"tags":{"building":"yes","source":"Yahoo"},"relations":[],"meta":{}},"geometry":{"type":"Polygon","coordinates":[[[50.5389021,26.2341138],[50.5388998,26.2343493],[50.5383902,26.2343493],[50.5383925,26.2341108],[50.5389021,26.2341138]]]}},{"type":"Feature","id":"way/62216659","properties":{"type":"way","id":62216659,"tags":{"amenity":"marketplace","building":"yes","name":"Fish Market"},"relations":[],"meta":{}},"geometry":{"type":"Polygon","coordinates":[[[50.5633028,26.2308112],[50.5628531,26.2305106],[50.5633121,26.2299746],[50.5635381,26.2301424],[50.5636383,26.2300329],[50.5638504,26.2301843],[50.5633028,26.2308112]]]}},{"type":"Feature","id":"way/62216676","properties":{"type":"way","id":62216676,"tags":{"amenity":"marketplace","building":"yes","name":"Fruit Market"},"relations":[],"meta":{}},"geometry":{"type":"Polygon","coordinates":[[[50.563796,26.2310713],[50.5641601,26.2306402],[50.5643727,26.2307771],[50.5640115,26.2312199],[50.563796,26.2310713]]]}},{"type":"Feature","id":"way/62216684","properties":{"type":"way","id":62216684,"tags":{"building":"yes","name":"Marina Mall","shop":"mall"},"relations":[],"meta":{}},"geometry":{"type":"Polygon","coordinates":[[[50.5634468,26.2295871],[50.5642369,26.2286114],[50.5648085,26.2290228],[50.5640111,26.2299767],[50.5634468,26.2295871]]]}},{"type":"Feature","id":"way/62216687","properties":{"type":"way","id":62216687,"tags":{"amenity":"marketplace","building":"yes","name":"Meat Market","shop":"mall"},"relations":[],"meta":{}},"geometry":{"type":"Polygon","coordinates":[[[50.5648728,26.2318511],[50.5646843,26.2317151],[50.5651519,26.2311675],[50.5653154,26.2313142],[50.5648728,26.2318511]]]}},{"type":"Feature","id":"way/62216695","properties":{"type":"way","id":62216695,"tags":{"amenity":"marketplace","building":"yes","name":"Fruit Market"},"relations":[],"meta":{}},"geometry":{"type":"Polygon","coordinates":[[[50.5638327,26.2304157],[50.5640564,26.2305532],[50.5636813,26.2309913],[50.5634623,26.2308561],[50.5638327,26.2304157]]]}},{"type":"Feature","id":"way/62216698","properties":{"type":"way","id":62216698,"tags":{"amenity":"marketplace","building":"yes","name":"Fruit Market","shop":"mall"},"relations":[],"meta":{}},"geometry":{"type":"Polygon","coordinates":[[[50.564097,26.2312718],[50.5644317,26.2308006],[50.5649476,26.2311669],[50.5646128,26.2316382],[50.564097,26.2312718]]]}},{"type":"Feature","id":"way/63202453","properties":{"type":"way","id":63202453,"tags":{"building":"mall","landuse":"retail","name":"Dana Mall","name:ar":"مجمّع الدّانة","shop":"mall"},"relations":[],"meta":{}},"geometry":{"type":"Polygon","coordinates":[[[50.5519223,26.2310421],[50.5517374,26.2308663],[50.5517304,26.2294235],[50.5518994,26.2292571],[50.5533217,26.2292519],[50.5535224,26.2294396],[50.5534907,26.2308642],[50.5532614,26.2310465],[50.5519223,26.2310421]]]}},{"type":"Feature","id":"way/64377457","properties":{"type":"way","id":64377457,"tags":{"building":"retail","name":"Gold City","shop":"mall"},"relations":[],"meta":{}},"geometry":{"type":"Polygon","coordinates":[[[50.5726443,26.232525],[50.5730925,26.2318934],[50.5734898,26.2321786],[50.5731095,26.2328849],[50.5726443,26.232525]]]}},{"type":"Feature","id":"way/64377474","properties":{"type":"way","id":64377474,"tags":{"building":"yes","name":"Lulu Centre Shopping Mall","shop":"mall"},"relations":[],"meta":{}},"geometry":{"type":"Polygon","coordinates":[[[50.5656896,26.2311086],[50.5664801,26.2301218],[50.5670846,26.2305114],[50.5662941,26.2314982],[50.5656896,26.2311086]]]}},{"type":"Feature","id":"way/64660931","properties":{"type":"way","id":64660931,"tags":{"amenity":"bank","building":"yes","name":"HSBC"},"relations":[],"meta":{}},"geometry":{"type":"Polygon","coordinates":[[[50.585716,26.2194073],[50.5858465,26.2192587],[50.5860503,26.2194027],[50.5859199,26.2195513],[50.585716,26.2194073]]]}},{"type":"Feature","id":"way/64660936","properties":{"type":"way","id":64660936,"tags":{"amenity":"bank","building":"yes","name":"National Bank of Bahrain"},"relations":[],"meta":{}},"geometry":{"type":"Polygon","coordinates":[[[50.5735572,26.2185215],[50.5737379,26.2185506],[50.5737046,26.2187167],[50.5735239,26.2186877],[50.5735572,26.2185215]]]}},{"type":"Feature","id":"way/64660966","properties":{"type":"way","id":64660966,"tags":{"amenity":"hospital","building":"yes","name":"Al Razi Health Centre","name:ar":"مركز الرازي الصحي"},"relations":[],"meta":{}},"geometry":{"type":"Polygon","coordinates":[[[50.5647074,26.2280839],[50.5650484,26.2277242],[50.5654473,26.2280284],[50.5651063,26.2283882],[50.5647074,26.2280839]]]}},{"type":"Feature","id":"way/64661003","properties":{"type":"way","id":64661003,"tags":{"building":"yes","layer":"1","name":"Discount Home Stores","shop":"furniture; clothes; shoes"},"relations":[],"meta":{}},"geometry":{"type":"Polygon","coordinates":[[[50.5849264,26.2203506],[50.5853635,26.2198054],[50.585649,26.2199092],[50.5854846,26.2201256],[50.5853764,26.220078],[50.5850606,26.2204718],[50.5849264,26.2203506]]]}},{"type":"Feature","id":"way/64830164","properties":{"type":"way","id":64830164,"tags":{"amenity":"kindergarten","building":"yes","name":"Creativity Model Preschool"},"relations":[],"meta":{}},"geometry":{"type":"Polygon","coordinates":[[[50.5921491,26.2157433],[50.5921644,26.2155707],[50.5923766,26.2155884],[50.5923519,26.2157547],[50.5921491,26.2157433]]]}},{"type":"Feature","id":"way/65001380","properties":{"type":"way","id":65001380,"tags":{"building":"yes","name":"Ashrafs","shop":"electronics"},"relations":[],"meta":{}},"geometry":{"type":"Polygon","coordinates":[[[50.5883088,26.2353589],[50.5884516,26.2349633],[50.5886891,26.2350323],[50.5885463,26.2354279],[50.5883088,26.2353589]]]}},{"type":"Feature","id":"way/65001428","properties":{"type":"way","id":65001428,"tags":{"amenity":"university","building":"yes","name":"Ahlia University","wikidata":"Q4695192"},"relations":[],"meta":{}},"geometry":{"type":"Polygon","coordinates":[[[50.5934572,26.2351989],[50.5937583,26.2353774],[50.5926245,26.236928],[50.5923233,26.2367495],[50.5934572,26.2351989]]]}},{"type":"Feature","id":"way/65001438","properties":{"type":"way","id":65001438,"tags":{"building":"yes","name":"Emirates Tower","tourism":"hotel"},"relations":[],"meta":{}},"geometry":{"type":"Polygon","coordinates":[[[50.5697518,26.2310391],[50.5699913,26.2308089],[50.5702341,26.2310122],[50.5699946,26.2312424],[50.5697518,26.2310391]]]}},{"type":"Feature","id":"way/65001460","properties":{"type":"way","id":65001460,"tags":{"building":"yes","name":"Al Muntazah","shop":"supermarket"},"relations":[],"meta":{}},"geometry":{"type":"Polygon","coordinates":[[[50.5946626,26.2346255],[50.5947623,26.2344945],[50.5951449,26.2347285],[50.5950452,26.2348596],[50.5946626,26.2346255]]]}},{"type":"Feature","id":"way/65001472","properties":{"type":"way","id":65001472,"tags":{"building":"yes","name":"Delmon International Hotel","tourism":"hotel"},"relations":[],"meta":{}},"geometry":{"type":"Polygon","coordinates":[[[50.5718255,26.23287],[50.572326,26.2324196],[50.5726228,26.2326849],[50.5721223,26.2331353],[50.5718255,26.23287]]]}},{"type":"Feature","id":"way/65001480","properties":{"type":"way","id":65001480,"tags":{"building":"yes","name":"Gulf Gate Hotel","tourism":"hotel"},"relations":[],"meta":{}},"geometry":{"type":"Polygon","coordinates":[[[50.5709585,26.2334415],[50.5710998,26.2332814],[50.5712473,26.233385],[50.5712976,26.2333285],[50.5712662,26.2333034],[50.5713384,26.2332406],[50.571398,26.2332845],[50.571442,26.2332374],[50.5713604,26.2331558],[50.5714734,26.2330428],[50.5718658,26.2333818],[50.5716429,26.2336299],[50.5713541,26.2338779],[50.5712379,26.2338841],[50.5706289,26.2334697],[50.5706132,26.2334164],[50.5706163,26.2333567],[50.5707011,26.2332563],[50.5709585,26.2334415]]]}},{"type":"Feature","id":"way/65001514","properties":{"type":"way","id":65001514,"tags":{"amenity":"marketplace","building":"yes","name":"Manama Central Market","name:ar":"سوق المنامة المركزي"},"relations":[],"meta":{}},"geometry":{"type":"Polygon","coordinates":[[[50.5644231,26.2296518],[50.564997,26.2289307],[50.566465,26.2298709],[50.5658911,26.230592],[50.5644231,26.2296518]]]}},{"type":"Feature","id":"way/65071303","properties":{"type":"way","id":65071303,"tags":{"amenity":"university","building":"yes","name":"Delmon University"},"relations":[],"meta":{}},"geometry":{"type":"Polygon","coordinates":[[[50.592302,26.2367935],[50.5925958,26.2369743],[50.5924432,26.2371739],[50.5921494,26.2369931],[50.592302,26.2367935]]]}},{"type":"Feature","id":"way/65071304","properties":{"type":"way","id":65071304,"tags":{"amenity":"embassy","building":"yes","country":"FR","name":"Embassy of France"},"relations":[],"meta":{}},"geometry":{"type":"Polygon","coordinates":[[[50.5949838,26.2389233],[50.5952992,26.2384731],[50.5956306,26.2386599],[50.5953152,26.2391101],[50.5949838,26.2389233]]]}},{"type":"Feature","id":"way/65071307","properties":{"type":"way","id":65071307,"tags":{"building":"yes","man_made":"gasometer","name":"Hoora A"},"relations":[],"meta":{}},"geometry":{"type":"Polygon","coordinates":[[[50.5913156,26.2373201],[50.5913521,26.2374157],[50.5913102,26.2375092],[50.5912146,26.2375457],[50.5911211,26.2375039],[50.5910846,26.2374082],[50.5911265,26.2373148],[50.5912221,26.2372782],[50.5913156,26.2373201]]]}},{"type":"Feature","id":"way/67151277","properties":{"type":"way","id":67151277,"tags":{"building":"yes","name":"Regency Intercontinental","tourism":"hotel"},"relations":[],"meta":{}},"geometry":{"type":"Polygon","coordinates":[[[50.5737545,26.2354918],[50.5732516,26.2351835],[50.5733841,26.2349675],[50.5731395,26.2348175],[50.5733888,26.2344109],[50.5741362,26.2348692],[50.5737545,26.2354918]]]}},{"type":"Feature","id":"way/67151320","properties":{"type":"way","id":67151320,"tags":{"building":"yes","name":"Al Muntazah","shop":"supermarket"},"relations":[],"meta":{}},"geometry":{"type":"Polygon","coordinates":[[[50.5621526,26.2284446],[50.5626039,26.228735],[50.5624333,26.2289483],[50.561982,26.2286579],[50.5621526,26.2284446]]]}},{"type":"Feature","id":"way/67151386","properties":{"type":"way","id":67151386,"tags":{"building":"yes","man_made":"water_tower","name":"Sulaymaniya Water Tower"},"relations":[],"meta":{}},"geometry":{"type":"Polygon","coordinates":[[[50.5749788,26.2147915],[50.5750126,26.2148792],[50.5749745,26.214965],[50.5748869,26.2149987],[50.5748011,26.2149606],[50.5747673,26.214873],[50.5748054,26.2147872],[50.574893,26.2147535],[50.5749788,26.2147915]]]}},{"type":"Feature","id":"way/67151388","properties":{"type":"way","id":67151388,"tags":{"amenity":"public_building","building":"yes","name":"Centre for Procurement, Warehousing & Distribution"},"relations":[],"meta":{}},"geometry":{"type":"Polygon","coordinates":[[[50.5739989,26.2154449],[50.5741233,26.2149149],[50.5749307,26.2151045],[50.5748064,26.2156344],[50.5739989,26.2154449]]]}},{"type":"Feature","id":"way/67151392","properties":{"type":"way","id":67151392,"tags":{"building":"yes","name":"Bahrain Carlton Hotel","tourism":"hotel"},"relations":[],"meta":{}},"geometry":{"type":"Polygon","coordinates":[[[50.5904571,26.212937],[50.590933,26.2122984],[50.5912131,26.2124671],[50.5907101,26.2130966],[50.5904571,26.212937]]]}},{"type":"Feature","id":"way/67494918","properties":{"type":"way","id":67494918,"tags":{"building":"yes","name":"MENA Telecom","note":"Approximate building shape"},"relations":[],"meta":{}},"geometry":{"type":"Polygon","coordinates":[[[50.5391372,26.2374519],[50.5391326,26.2372595],[50.5395563,26.2372512],[50.5395609,26.2374436],[50.5391372,26.2374519]]]}},{"type":"Feature","id":"way/67495465","properties":{"type":"way","id":67495465,"tags":{"building":"office","building:levels":"44","height":"172","name":"Almoayyed Tower","note":"approximate location","wikidata":"Q4733861","wikipedia":"en:Almoayyed Tower"},"relations":[],"meta":{}},"geometry":{"type":"Polygon","coordinates":[[[50.5415184,26.2359918],[50.5415168,26.2356261],[50.5419514,26.2356246],[50.541953,26.2359903],[50.5415184,26.2359918]]]}},{"type":"Feature","id":"way/67601877","properties":{"type":"way","id":67601877,"tags":{"building":"yes","note":"approximate location"},"relations":[],"meta":{}},"geometry":{"type":"Polygon","coordinates":[[[50.5412772,26.2361065],[50.5409794,26.2361075],[50.5409774,26.2356191],[50.5412751,26.2356181],[50.5412772,26.2361065]]]}},{"type":"Feature","id":"way/100106045","properties":{"type":"way","id":100106045,"tags":{"amenity":"place_of_worship","building":"yes","religion":"muslim"},"relations":[],"meta":{}},"geometry":{"type":"Polygon","coordinates":[[[50.5908622,26.2282703],[50.5908941,26.228114],[50.5911597,26.2281577],[50.5911278,26.2283139],[50.5908622,26.2282703]]]}},{"type":"Feature","id":"way/115600384","properties":{"type":"way","id":115600384,"tags":{"building":"yes","leisure":"pitch","sport":"soccer"},"relations":[],"meta":{}},"geometry":{"type":"Polygon","coordinates":[[[50.5775063,26.2178098],[50.5778353,26.217976],[50.5775982,26.2183536],[50.5772693,26.2181874],[50.5775063,26.2178098]]]}},{"type":"Feature","id":"way/115600388","properties":{"type":"way","id":115600388,"tags":{"building":"yes","leisure":"garden","name":"Abu Asheerah Garden"},"relations":[],"meta":{}},"geometry":{"type":"Polygon","coordinates":[[[50.5823079,26.2095646],[50.5817596,26.2093911],[50.5819851,26.2088176],[50.5825334,26.2089912],[50.5823079,26.2095646]]]}},{"type":"Feature","id":"way/170979636","properties":{"type":"way","id":170979636,"tags":{"amenity":"place_of_worship","building":"church","name":"St Christopher's Cathedral","religion":"christian"},"relations":[],"meta":{}},"geometry":{"type":"Polygon","coordinates":[[[50.5782043,26.2242147],[50.578226,26.2241279],[50.5783153,26.2241458],[50.5783296,26.2240884],[50.5784387,26.2241103],[50.5784027,26.2242545],[50.5782043,26.2242147]]]}},{"type":"Feature","id":"way/170979637","properties":{"type":"way","id":170979637,"tags":{"amenity":"place_of_worship","building":"mosque","religion":"muslim"},"relations":[],"meta":{}},"geometry":{"type":"Polygon","coordinates":[[[50.5701302,26.2283567],[50.5700559,26.2283191],[50.5701194,26.228222],[50.5701972,26.2282437],[50.5701302,26.2283567]]]}},{"type":"Feature","id":"way/170979638","properties":{"type":"way","id":170979638,"tags":{"amenity":"place_of_worship","building":"mosque","religion":"muslim"},"relations":[],"meta":{}},"geometry":{"type":"Polygon","coordinates":[[[50.5821044,26.2255504],[50.5819149,26.2254861],[50.5818956,26.2255318],[50.5817985,26.2254988],[50.5819554,26.2251272],[50.582242,26.2252245],[50.5821044,26.2255504]]]}},{"type":"Feature","id":"way/174277832","properties":{"type":"way","id":174277832,"tags":{"building":"commercial","name":"Financial Centre","start_date":"2007"},"relations":[],"meta":{}},"geometry":{"type":"Polygon","coordinates":[[[50.574152,26.2376708],[50.5737871,26.2382938],[50.5727586,26.2378032],[50.5730992,26.2372234],[50.5731842,26.2370789],[50.5742131,26.2375651],[50.574152,26.2376708]]]}},{"type":"Feature","id":"way/174277833","properties":{"type":"way","id":174277833,"tags":{"building":"commercial","building:levels":"53","height":"260","name":"BFH West Tower","start_date":"2007"},"relations":[],"meta":{}},"geometry":{"type":"Polygon","coordinates":[[[50.5730992,26.2372234],[50.5727586,26.2378032],[50.5724632,26.2376635],[50.5728038,26.2370838],[50.5730992,26.2372234]]]}},{"type":"Feature","id":"way/174277834","properties":{"type":"way","id":174277834,"tags":{"building":"commercial","building:levels":"53","height":"260","name":"BFH East Tower","start_date":"2007"},"relations":[],"meta":{}},"geometry":{"type":"Polygon","coordinates":[[[50.574152,26.2376708],[50.5744353,26.2378042],[50.5740703,26.2384273],[50.5737871,26.2382938],[50.574152,26.2376708]]]}},{"type":"Feature","id":"way/175197567","properties":{"type":"way","id":175197567,"tags":{"amenity":"parking","building":"yes","parking":"multi-storey"},"relations":[],"meta":{}},"geometry":{"type":"Polygon","coordinates":[[[50.5553254,26.2347052],[50.5532814,26.2347126],[50.5532783,26.2340176],[50.5553223,26.2340103],[50.5553235,26.2342614],[50.5553254,26.2347052]]]}},{"type":"Feature","id":"way/175197568","properties":{"type":"way","id":175197568,"tags":{"building":"mall","landuse":"retail","name":"Bahrain City Centre","name:ar":"ستي سنتر البحرين","shop":"mall","short_name":"BCC","start_date":"2008","website":"http://www.bahraincitycentre.com/","wikidata":"Q4842738","wikipedia":"en:Bahrain City Centre"},"relations":[],"meta":{}},"geometry":{"type":"Polygon","coordinates":[[[50.5558982,26.234011],[50.5557806,26.2340082],[50.5557825,26.2342586],[50.5553235,26.2342614],[50.5553223,26.2340103],[50.5532783,26.2340176],[50.5532814,26.2347126],[50.551655,26.2347232],[50.5516917,26.2328137],[50.5525849,26.2328113],[50.5525803,26.23263],[50.5522504,26.2326252],[50.5522496,26.2323734],[50.5558955,26.2323894],[50.5558973,26.2334753],[50.5558116,26.2334735],[50.5558159,26.2337738],[50.5558978,26.2337737],[50.5558982,26.234011]]]}},{"type":"Feature","id":"way/175248571","properties":{"type":"way","id":175248571,"tags":{"amenity":"conference_centre","building":"yes","name":"Bahrain International Exhibition Centre","name:ar":"معرض البحرين الدولي للمعارض والمؤتمرات","short_name":"BIECC","website":"http://www.beca.bh/"},"relations":[],"meta":{}},"geometry":{"type":"Polygon","coordinates":[[[50.5434726,26.2305408],[50.543472,26.2306118],[50.5428159,26.2306075],[50.5428165,26.2305364],[50.5425868,26.2305349],[50.542588,26.230378],[50.5424909,26.2303768],[50.5424925,26.230698],[50.5421299,26.2306984],[50.5421294,26.2303783],[50.5420243,26.2303779],[50.542024,26.2307421],[50.5407545,26.2307413],[50.5407551,26.2298082],[50.5420249,26.229809],[50.5420246,26.2301722],[50.5421296,26.2301726],[50.5421291,26.22983],[50.5424912,26.2298295],[50.5424941,26.2301783],[50.54259,26.2301796],[50.5425913,26.2300165],[50.5428169,26.2300179],[50.5428188,26.2297848],[50.5434814,26.2297892],[50.5434795,26.2300223],[50.5437072,26.2300238],[50.543703,26.2305423],[50.5434726,26.2305408]]]}},{"type":"Feature","id":"way/175305770","properties":{"type":"way","id":175305770,"tags":{"amenity":"library","building":"yes","name":"Shaikh Isa National Library","official_name":"Sheikh Isa Bin Salman Al Khalifa Library"},"relations":[],"meta":{}},"geometry":{"type":"Polygon","coordinates":[[[50.5994493,26.2210881],[50.5994164,26.2210847],[50.5993979,26.2210744],[50.5993783,26.2210578],[50.5993667,26.2210402],[50.5993587,26.2210185],[50.5993402,26.2210381],[50.5993241,26.2210505],[50.5993056,26.2210588],[50.5992837,26.2210619],[50.5992595,26.2210599],[50.5992398,26.2210537],[50.5992214,26.2210423],[50.5992064,26.2210267],[50.599196,26.221005],[50.5991925,26.2209719],[50.5991602,26.2209895],[50.5991395,26.2209947],[50.5991095,26.2209936],[50.5990841,26.2209822],[50.599061,26.2209667],[50.5990449,26.2209367],[50.5990449,26.2206428],[50.5987917,26.2206442],[50.5987855,26.2203902],[50.598849,26.2203126],[50.5992179,26.2203118],[50.5992179,26.22017],[50.5993056,26.2201689],[50.5993044,26.2201213],[50.599211,26.2201193],[50.5990079,26.2200044],[50.5991175,26.2198377],[50.5993125,26.2199412],[50.5993448,26.2199278],[50.599346,26.2198947],[50.5995469,26.2198943],[50.599548,26.2199274],[50.5995803,26.2199409],[50.5997753,26.2198374],[50.5998849,26.220004],[50.5996819,26.2201189],[50.5995884,26.220121],[50.5995873,26.2201686],[50.5996749,26.2201696],[50.5996749,26.2203114],[50.6000439,26.2203123],[50.6001073,26.2203899],[50.6001011,26.2206439],[50.599848,26.2206424],[50.599848,26.2209363],[50.5998318,26.2209663],[50.5998088,26.2209819],[50.5997834,26.2209933],[50.5997534,26.2209943],[50.5997326,26.2209891],[50.5997003,26.2209715],[50.5996969,26.2210046],[50.5996865,26.2210264],[50.5996715,26.2210419],[50.599653,26.2210533],[50.5996334,26.2210595],[50.5996092,26.2210616],[50.5995873,26.2210585],[50.5995688,26.2210502],[50.5995526,26.2210378],[50.5995342,26.2210181],[50.5995261,26.2210398],[50.5995146,26.2210574],[50.599495,26.221074],[50.5994765,26.2210843],[50.5994493,26.2210881]]]}},{"type":"Feature","id":"way/175309892","properties":{"type":"way","id":175309892,"tags":{"building":"yes"},"relations":[],"meta":{}},"geometry":{"type":"Polygon","coordinates":[[[50.5922917,26.2189918],[50.5916971,26.219026],[50.5916699,26.2186855],[50.5917398,26.2186815],[50.5917617,26.2189548],[50.5922863,26.2189246],[50.5922917,26.2189918]]]}},{"type":"Feature","id":"way/175309893","properties":{"type":"way","id":175309893,"tags":{"building":"yes"},"relations":[],"meta":{}},"geometry":{"type":"Polygon","coordinates":[[[50.5917284,26.2185381],[50.5916584,26.2185421],[50.5916317,26.2182072],[50.5922263,26.218173],[50.5922316,26.2182402],[50.591707,26.2182703],[50.5917284,26.2185381]]]}},{"type":"Feature","id":"way/175309894","properties":{"type":"way","id":175309894,"tags":{"alt_name":"Al-Qudaibiya Palace","building":"yes","name":"Gudaibiya Palace","tourism":"attraction","wikipedia":"en:Al-Qudaibiya Palace"},"relations":[],"meta":{}},"geometry":{"type":"Polygon","coordinates":[[[50.5930897,26.2189909],[50.5928199,26.2190064],[50.5928224,26.2190378],[50.5926675,26.2190467],[50.592665,26.2190153],[50.5923702,26.2190323],[50.5923573,26.218871],[50.5925222,26.2188615],[50.5925043,26.2186375],[50.5923394,26.218647],[50.5923278,26.2185015],[50.5924927,26.218492],[50.5924748,26.2182687],[50.59231,26.2182782],[50.5922971,26.2181169],[50.5925919,26.2180999],[50.5925898,26.2180745],[50.5927447,26.2180656],[50.5927468,26.218091],[50.5930166,26.2180755],[50.5930295,26.2182368],[50.5927846,26.2182509],[50.5927978,26.218416],[50.5929277,26.2184085],[50.5929324,26.2184667],[50.5930023,26.2184627],[50.593014,26.2186082],[50.592944,26.2186122],[50.5929487,26.2186704],[50.5928188,26.2186779],[50.592832,26.2188437],[50.5930768,26.2188296],[50.5930897,26.2189909]]]}},{"type":"Feature","id":"way/175316963","properties":{"type":"way","id":175316963,"tags":{"building":"yes","historic":"castle","name":"Old Palace"},"relations":[],"meta":{}},"geometry":{"type":"Polygon","coordinates":[[[50.5878825,26.2221181],[50.5876493,26.2221339],[50.5876528,26.2221727],[50.5876016,26.2221761],[50.5876166,26.2223554],[50.5873323,26.2223747],[50.5873175,26.2221954],[50.5872663,26.2221989],[50.5872633,26.2221601],[50.5870171,26.2221768],[50.5870051,26.2220387],[50.5870554,26.2220353],[50.5870299,26.2217261],[50.5873376,26.2217052],[50.5873262,26.2215748],[50.5874972,26.2215632],[50.5875079,26.2216937],[50.5878036,26.2216737],[50.5878291,26.2219828],[50.5878714,26.2219799],[50.5878825,26.2221181]]]}},{"type":"Feature","id":"way/175319067","properties":{"type":"way","id":175319067,"tags":{"amenity":"place_of_worship","building":"mosque","name":"Farooq Mosque","name:ar":"مسجد الفاروق","name:de":"Farooq Moschee","name:en":"Farooq Mosque","religion":"muslim"},"relations":[],"meta":{}},"geometry":{"type":"Polygon","coordinates":[[[50.5837588,26.2328843],[50.5835771,26.2328112],[50.5835662,26.232833],[50.5833685,26.2327534],[50.5833607,26.2327691],[50.5832936,26.2327421],[50.5833862,26.2325569],[50.5834493,26.2325823],[50.5834409,26.2325991],[50.5835158,26.2326292],[50.5838114,26.2320379],[50.5841724,26.2321831],[50.5840705,26.232387],[50.5841532,26.2324238],[50.5839586,26.2327845],[50.5838338,26.2327343],[50.5837588,26.2328843]]]}},{"type":"Feature","id":"way/176071765","properties":{"type":"way","id":176071765,"tags":{"building":"yes","name":"Funland","website":"http://funlandbahrain.com/"},"relations":[],"meta":{}},"geometry":{"type":"Polygon","coordinates":[[[50.5993727,26.2347035],[50.5990233,26.2346195],[50.599238,26.2339008],[50.5995875,26.2339849],[50.5993727,26.2347035]]]}},{"type":"Feature","id":"way/176982308","properties":{"type":"way","id":176982308,"tags":{"building":"apartments","building:levels":"40","height":"160","start_date":"2009"},"relations":[],"meta":{}},"geometry":{"type":"Polygon","coordinates":[[[50.5597234,26.2302375],[50.5593129,26.2302481],[50.5593058,26.2300265],[50.5597163,26.2300159],[50.5597234,26.2302375]]]}},{"type":"Feature","id":"way/176982309","properties":{"type":"way","id":176982309,"tags":{"building":"apartments","building:levels":"50","height":"200","start_date":"2009"},"relations":[],"meta":{}},"geometry":{"type":"Polygon","coordinates":[[[50.5587484,26.2299889],[50.5584845,26.2296257],[50.5587244,26.2294854],[50.5589883,26.2298487],[50.5587484,26.2299889]]]}},{"type":"Feature","id":"way/176982310","properties":{"type":"way","id":176982310,"tags":{"building":"apartments","building:levels":"50","height":"200","start_date":"2009"},"relations":[],"meta":{}},"geometry":{"type":"Polygon","coordinates":[[[50.5590006,26.2304329],[50.5587615,26.2308161],[50.5585223,26.230696],[50.5587614,26.2303128],[50.5590006,26.2304329]]]}},{"type":"Feature","id":"way/185306488","properties":{"type":"way","id":185306488,"tags":{"addr:street":"Avenue 22","building":"apartments","name":"Oasis 1"},"relations":[],"meta":{}},"geometry":{"type":"Polygon","coordinates":[[[50.6121896,26.2156067],[50.6121518,26.2156953],[50.6118838,26.215703],[50.6119107,26.215573],[50.6121896,26.2156067]]]}},{"type":"Feature","id":"way/185306553","properties":{"type":"way","id":185306553,"tags":{"addr:street":"Avenue 22","building":"apartments","name":"Oasis 2"},"relations":[],"meta":{}},"geometry":{"type":"Polygon","coordinates":[[[50.6121735,26.2154623],[50.6118999,26.2154912],[50.6118889,26.215368],[50.6121574,26.2153468],[50.6121735,26.2154623]]]}},{"type":"Feature","id":"way/202776146","properties":{"type":"way","id":202776146,"tags":{"building":"yes"},"relations":[],"meta":{}},"geometry":{"type":"Polygon","coordinates":[[[50.5392272,26.2350508],[50.5396799,26.2350508],[50.5396799,26.2351328],[50.5392272,26.2351328],[50.5392272,26.2350508]]]}},{"type":"Feature","id":"way/202776147","properties":{"type":"way","id":202776147,"tags":{"building":"yes"},"relations":[],"meta":{}},"geometry":{"type":"Polygon","coordinates":[[[50.5392343,26.23475],[50.5396752,26.2347479],[50.5396757,26.2348336],[50.5392348,26.2348357],[50.5392343,26.23475]]]}},{"type":"Feature","id":"way/202776148","properties":{"type":"way","id":202776148,"tags":{"building":"yes"},"relations":[],"meta":{}},"geometry":{"type":"Polygon","coordinates":[[[50.5391615,26.2353363],[50.5391109,26.2353358],[50.5391143,26.2350576],[50.5391648,26.2350581],[50.5391615,26.2353363]]]}},{"type":"Feature","id":"way/202776149","properties":{"type":"way","id":202776149,"tags":{"building":"yes"},"relations":[],"meta":{}},"geometry":{"type":"Polygon","coordinates":[[[50.5397305,26.2353267],[50.5397371,26.2346997],[50.5397832,26.2347001],[50.5397767,26.235327],[50.5397305,26.2353267]]]}},{"type":"Feature","id":"way/202776150","properties":{"type":"way","id":202776150,"tags":{"building":"yes"},"relations":[],"meta":{}},"geometry":{"type":"Polygon","coordinates":[[[50.5391632,26.2349584],[50.5391077,26.2349577],[50.539111,26.2347702],[50.5391665,26.234771],[50.5391632,26.2349584]]]}},{"type":"Feature","id":"way/202776151","properties":{"type":"way","id":202776151,"tags":{"building":"yes"},"relations":[],"meta":{}},"geometry":{"type":"Polygon","coordinates":[[[50.539239,26.2352002],[50.5396822,26.2352002],[50.5396822,26.2352885],[50.539239,26.2352885],[50.539239,26.2352002]]]}},{"type":"Feature","id":"way/202776152","properties":{"type":"way","id":202776152,"tags":{"building":"yes"},"relations":[],"meta":{}},"geometry":{"type":"Polygon","coordinates":[[[50.5392343,26.2349014],[50.5396775,26.2349014],[50.5396775,26.2349961],[50.5392343,26.2349961],[50.5392343,26.2349014]]]}},{"type":"Feature","id":"way/202776153","properties":{"type":"way","id":202776153,"tags":{"building":"yes"},"relations":[],"meta":{}},"geometry":{"type":"Polygon","coordinates":[[[50.5397303,26.2353398],[50.5397304,26.23538],[50.5391906,26.2353808],[50.5391905,26.2353405],[50.5397303,26.2353398]]]}},{"type":"Feature","id":"way/202776191","properties":{"type":"way","id":202776191,"tags":{"building":"yes"},"relations":[],"meta":{}},"geometry":{"type":"Polygon","coordinates":[[[50.5388383,26.2376383],[50.538644,26.2376397],[50.5386407,26.2372663],[50.538835,26.2372649],[50.5388383,26.2376383]]]}},{"type":"Feature","id":"way/204793760","properties":{"type":"way","id":204793760,"tags":{"building":"yes"},"relations":[],"meta":{}},"geometry":{"type":"Polygon","coordinates":[[[50.5760094,26.2244543],[50.5759423,26.2243917],[50.5758592,26.2243292],[50.5757787,26.2242786],[50.5757063,26.2242473],[50.5756231,26.2242185],[50.5755373,26.224204],[50.5754542,26.2241968],[50.5753737,26.2241992],[50.5752932,26.2242064],[50.575202,26.2242209],[50.5751763,26.2241232],[50.5752702,26.2241015],[50.5753603,26.2240958],[50.5754633,26.2240919],[50.5755507,26.2240958],[50.5756446,26.2241174],[50.5757342,26.2241424],[50.57582,26.2241809],[50.5759219,26.2242339],[50.5760147,26.2243003],[50.5761033,26.2243917],[50.5760094,26.2244543]]]}},{"type":"Feature","id":"way/204793763","properties":{"type":"way","id":204793763,"tags":{"building":"yes"},"relations":[],"meta":{}},"geometry":{"type":"Polygon","coordinates":[[[50.5728655,26.2230269],[50.5727436,26.2236353],[50.5726383,26.2236183],[50.5727602,26.2230099],[50.5728655,26.2230269]]]}},{"type":"Feature","id":"way/204793765","properties":{"type":"way","id":204793765,"tags":{"building":"yes"},"relations":[],"meta":{}},"geometry":{"type":"Polygon","coordinates":[[[50.5750867,26.2242377],[50.5729366,26.2239788],[50.5729463,26.2238792],[50.5751028,26.2241294],[50.5750867,26.2242377]]]}},{"type":"Feature","id":"way/204793766","properties":{"type":"way","id":204793766,"tags":{"building":"yes"},"relations":[],"meta":{}},"geometry":{"type":"Polygon","coordinates":[[[50.5728465,26.2238555],[50.5728953,26.2238696],[50.5729463,26.2238792],[50.5729366,26.2239788],[50.5728631,26.2239658],[50.5728159,26.2239548],[50.5727612,26.2239297],[50.5727103,26.223884],[50.5726673,26.2238263],[50.5726416,26.2237575],[50.5726282,26.2236877],[50.5726383,26.2236183],[50.5727436,26.2236353],[50.5727435,26.2236732],[50.5727408,26.2237045],[50.5727505,26.2237517],[50.5727757,26.2238032],[50.5728079,26.223832],[50.5728465,26.2238555]]]}},{"type":"Feature","id":"way/204793767","properties":{"type":"way","id":204793767,"tags":{"building":"yes"},"relations":[],"meta":{}},"geometry":{"type":"Polygon","coordinates":[[[50.5773505,26.2242618],[50.5773263,26.2243773],[50.5773076,26.2244495],[50.5772834,26.2245024],[50.5772378,26.224565],[50.5771949,26.2246107],[50.5771359,26.2246588],[50.5770715,26.2246925],[50.5769991,26.2247165],[50.5769197,26.2247247],[50.5768435,26.2247214],[50.5767657,26.224706],[50.576795,26.2246193],[50.5768768,26.2246261],[50.5769626,26.2246189],[50.5770259,26.2245986],[50.5770984,26.2245553],[50.577144,26.2245024],[50.5771735,26.2244591],[50.577203,26.2243893],[50.5772222,26.2243016],[50.5772351,26.2242425],[50.5773505,26.2242618]]]}},{"type":"Feature","id":"way/204793768","properties":{"type":"way","id":204793768,"tags":{"building":"yes"},"relations":[],"meta":{}},"geometry":{"type":"Polygon","coordinates":[[[50.5761516,26.2244447],[50.576795,26.2246193],[50.5767657,26.224706],[50.5761224,26.2245313],[50.5761516,26.2244447]]]}},{"type":"Feature","id":"way/204794731","properties":{"type":"way","id":204794731,"tags":{"amenity":"public_building","building":"yes","building:use":"offices"},"relations":[],"meta":{}},"geometry":{"type":"Polygon","coordinates":[[[50.5761967,26.2230701],[50.57606,26.2230421],[50.5760762,26.2229981],[50.5761411,26.222738],[50.5761481,26.2226967],[50.5762848,26.2227247],[50.5761967,26.2230701]]]}},{"type":"Feature","id":"way/204794733","properties":{"type":"way","id":204794733,"tags":{"amenity":"public_building","building":"yes","building:use":"offices"},"relations":[],"meta":{}},"geometry":{"type":"Polygon","coordinates":[[[50.575958,26.2226273],[50.5761131,26.2226585],[50.5760955,26.2227289],[50.5761411,26.222738],[50.5760762,26.2229981],[50.5758359,26.2229498],[50.5759014,26.2226876],[50.5759409,26.2226955],[50.575958,26.2226273]]]}},{"type":"Feature","id":"way/204794734","properties":{"type":"way","id":204794734,"tags":{"amenity":"public_building","building":"yes"},"relations":[],"meta":{}},"geometry":{"type":"Polygon","coordinates":[[[50.5764231,26.2231695],[50.5764332,26.2231578],[50.5764486,26.2231487],[50.5764621,26.2231453],[50.5764805,26.2231459],[50.5764966,26.2231515],[50.5765106,26.2231622],[50.5765178,26.2231728],[50.5765224,26.2231888],[50.5765222,26.2231982],[50.5765168,26.223214],[50.5764989,26.223232],[50.5764838,26.2232382],[50.5764655,26.2232398],[50.5764486,26.2232361],[50.5764332,26.2232271],[50.5764241,26.223217],[50.5764175,26.2232015],[50.5764172,26.2231851],[50.5764231,26.2231695]]]}},{"type":"Feature","id":"way/204794736","properties":{"type":"way","id":204794736,"tags":{"amenity":"public_building","building":"yes","building:use":"offices"},"relations":[],"meta":{}},"geometry":{"type":"Polygon","coordinates":[[[50.5757707,26.2226256],[50.5759075,26.2226521],[50.5759014,26.2226876],[50.5758359,26.2229498],[50.5758297,26.2229793],[50.5756929,26.2229528],[50.5757707,26.2226256]]]}},{"type":"Feature","id":"way/204794737","properties":{"type":"way","id":204794737,"tags":{"amenity":"public_building","building":"yes"},"relations":[],"meta":{}},"geometry":{"type":"Polygon","coordinates":[[[50.5754116,26.222979],[50.5754096,26.2229953],[50.5754022,26.2230092],[50.5753892,26.2230208],[50.5753719,26.2230279],[50.5753537,26.2230291],[50.5753322,26.2230228],[50.5753183,26.2230121],[50.5753106,26.2230008],[50.5753063,26.2229848],[50.5753073,26.2229727],[50.575314,26.2229574],[50.5753252,26.2229457],[50.5753411,26.2229375],[50.5753521,26.2229351],[50.5753704,26.2229358],[50.575389,26.2229431],[50.5754021,26.2229547],[50.5754099,26.2229695],[50.5754116,26.222979]]]}},{"type":"Feature","id":"way/204795727","properties":{"type":"way","id":204795727,"tags":{"amenity":"public_building","building":"yes","building:use":"offices"},"relations":[],"meta":{}},"geometry":{"type":"Polygon","coordinates":[[[50.5762657,26.2237777],[50.5763762,26.2237991],[50.5765657,26.2238388],[50.5767422,26.2238727],[50.5767012,26.2240353],[50.5762281,26.2239368],[50.5762657,26.2237777]]]}},{"type":"Feature","id":"way/204795728","properties":{"type":"way","id":204795728,"tags":{"amenity":"public_building","building":"yes","building:use":"offices"},"relations":[],"meta":{}},"geometry":{"type":"Polygon","coordinates":[[[50.5766319,26.2235772],[50.5768037,26.2236106],[50.5767422,26.2238727],[50.5765657,26.2238388],[50.5766319,26.2235772]]]}},{"type":"Feature","id":"way/204795729","properties":{"type":"way","id":204795729,"tags":{"amenity":"public_building","building":"yes","building:use":"offices"},"relations":[],"meta":{}},"geometry":{"type":"Polygon","coordinates":[[[50.5768427,26.223449],[50.5768037,26.2236106],[50.5766319,26.2235772],[50.5764388,26.2235398],[50.5763762,26.2237991],[50.5762657,26.2237777],[50.5763672,26.2233568],[50.5768427,26.223449]]]}},{"type":"Feature","id":"way/204798227","properties":{"type":"way","id":204798227,"tags":{"amenity":"public_building","building":"yes","building:use":"offices"},"relations":[],"meta":{}},"geometry":{"type":"Polygon","coordinates":[[[50.5769194,26.2231917],[50.5770106,26.2228369],[50.5772027,26.2228766],[50.5771709,26.2230002],[50.5771115,26.2232314],[50.5769194,26.2231917]]]}},{"type":"Feature","id":"way/204798228","properties":{"type":"way","id":204798228,"tags":{"building":"yes"},"relations":[],"meta":{}},"geometry":{"type":"Polygon","coordinates":[[[50.5757753,26.2223253],[50.5757892,26.2222673],[50.5759431,26.222297],[50.5759292,26.222355],[50.5757753,26.2223253]]]}},{"type":"Feature","id":"way/204798229","properties":{"type":"way","id":204798229,"tags":{"building":"yes"},"relations":[],"meta":{}},"geometry":{"type":"Polygon","coordinates":[[[50.5754052,26.2221931],[50.5757892,26.2222673],[50.5757753,26.2223253],[50.5754928,26.2222753],[50.5754839,26.2225292],[50.5753925,26.2225248],[50.5754052,26.2221931]]]}},{"type":"Feature","id":"way/204798230","properties":{"type":"way","id":204798230,"tags":{"amenity":"public_building","building":"yes","building:use":"offices"},"relations":[],"meta":{}},"geometry":{"type":"Polygon","coordinates":[[[50.577408,26.223348],[50.5772571,26.2233199],[50.5772693,26.2232642],[50.5773283,26.2230324],[50.5773348,26.2229842],[50.5774857,26.2230123],[50.577408,26.223348]]]}},{"type":"Feature","id":"way/204798231","properties":{"type":"way","id":204798231,"tags":{"building":"yes"},"relations":[],"meta":{}},"geometry":{"type":"Polygon","coordinates":[[[50.5754649,26.2229047],[50.5754917,26.2229336],[50.5756929,26.2229528],[50.5758297,26.2229793],[50.5758359,26.2229498],[50.5760762,26.2229981],[50.57606,26.2230421],[50.5761967,26.2230701],[50.576181,26.2231213],[50.5754116,26.222979],[50.5754099,26.2229695],[50.5754021,26.2229547],[50.575389,26.2229431],[50.5753964,26.2225988],[50.5754795,26.2226028],[50.5754649,26.2229047]]]}},{"type":"Feature","id":"way/204798232","properties":{"type":"way","id":204798232,"tags":{"amenity":"public_building","building":"yes","building:use":"offices"},"relations":[],"meta":{}},"geometry":{"type":"Polygon","coordinates":[[[50.5771709,26.2230002],[50.5773283,26.2230324],[50.5772693,26.2232642],[50.5771115,26.2232314],[50.5771709,26.2230002]]]}},{"type":"Feature","id":"way/204798233","properties":{"type":"way","id":204798233,"tags":{"building":"yes"},"relations":[],"meta":{}},"geometry":{"type":"Polygon","coordinates":[[[50.5764412,26.2229384],[50.5764814,26.2224668],[50.5759292,26.222355],[50.5759431,26.222297],[50.5765737,26.2223835],[50.5765281,26.2229442],[50.5764412,26.2229384]]]}},{"type":"Feature","id":"way/204798234","properties":{"type":"way","id":204798234,"tags":{"building":"yes"},"relations":[],"meta":{}},"geometry":{"type":"Polygon","coordinates":[[[50.5753518,26.2225967],[50.5753561,26.2225231],[50.5753925,26.2225248],[50.5754839,26.2225292],[50.5754795,26.2226028],[50.5753964,26.2225988],[50.5753518,26.2225967]]]}},{"type":"Feature","id":"way/204798322","properties":{"type":"way","id":204798322,"tags":{"building":"yes"},"relations":[],"meta":{}},"geometry":{"type":"Polygon","coordinates":[[[50.5773635,26.2235901],[50.5774149,26.2233821],[50.5774963,26.2233983],[50.5774449,26.2236063],[50.5773635,26.2235901]]]}},{"type":"Feature","id":"way/204798538","properties":{"type":"way","id":204798538,"tags":{"building":"yes"},"relations":[],"meta":{}},"geometry":{"type":"Polygon","coordinates":[[[50.5759005,26.2217479],[50.5757549,26.2220224],[50.5755505,26.2219351],[50.5755895,26.2218616],[50.5753631,26.221765],[50.5754698,26.221564],[50.5759005,26.2217479]]]}},{"type":"Feature","id":"way/204800897","properties":{"type":"way","id":204800897,"tags":{"building":"yes"},"relations":[],"meta":{}},"geometry":{"type":"Polygon","coordinates":[[[50.5791154,26.2267064],[50.5792559,26.2268108],[50.5791218,26.2269913],[50.5789732,26.2267882],[50.5791154,26.2267064]]]}},{"type":"Feature","id":"way/204800900","properties":{"type":"way","id":204800900,"tags":{"building":"yes"},"relations":[],"meta":{}},"geometry":{"type":"Polygon","coordinates":[[[50.5791096,26.2275188],[50.5789251,26.2272622],[50.5790321,26.2272004],[50.5792166,26.2274569],[50.5791096,26.2275188]]]}},{"type":"Feature","id":"way/204800903","properties":{"type":"way","id":204800903,"tags":{"building":"yes"},"relations":[],"meta":{}},"geometry":{"type":"Polygon","coordinates":[[[50.5792683,26.2272237],[50.5791218,26.2269913],[50.5792559,26.2268108],[50.5795891,26.2270416],[50.5795302,26.2271101],[50.5795054,26.2271019],[50.5793541,26.2271852],[50.5792683,26.2272237]]]}},{"type":"Feature","id":"way/204800904","properties":{"type":"way","id":204800904,"tags":{"building":"yes"},"relations":[],"meta":{}},"geometry":{"type":"Polygon","coordinates":[[[50.5774881,26.2256001],[50.5773934,26.2254841],[50.5775043,26.2254113],[50.577599,26.2255273],[50.5774881,26.2256001]]]}},{"type":"Feature","id":"way/204800905","properties":{"type":"way","id":204800905,"tags":{"building":"yes"},"relations":[],"meta":{}},"geometry":{"type":"Polygon","coordinates":[[[50.5797972,26.2272948],[50.5795302,26.2271101],[50.5795891,26.2270416],[50.5798561,26.2272263],[50.5797972,26.2272948]]]}},{"type":"Feature","id":"way/204800906","properties":{"type":"way","id":204800906,"tags":{"building":"yes"},"relations":[],"meta":{}},"geometry":{"type":"Polygon","coordinates":[[[50.5790044,26.227161],[50.5788932,26.227229],[50.5787046,26.226981],[50.5788159,26.2269129],[50.5790044,26.227161]]]}},{"type":"Feature","id":"way/204800964","properties":{"type":"way","id":204800964,"tags":{"building":"yes"},"relations":[],"meta":{}},"geometry":{"type":"Polygon","coordinates":[[[50.5799058,26.2279417],[50.5796824,26.2276303],[50.5798316,26.2275442],[50.580055,26.2278556],[50.5799058,26.2279417]]]}},{"type":"Feature","id":"way/204800965","properties":{"type":"way","id":204800965,"tags":{"amenity":"place_of_worship","building":"yes","building:use":"church","denomination":"catholic","name":"Sacred Heart","name:en":"Sacred Heart","religion":"christian"},"relations":[],"meta":{}},"geometry":{"type":"Polygon","coordinates":[[[50.580563,26.2277197],[50.5806308,26.2277819],[50.5806587,26.2277684],[50.5808105,26.2279215],[50.5807901,26.2279393],[50.5808223,26.2279657],[50.5808132,26.2280057],[50.5803975,26.2283305],[50.5803572,26.2283305],[50.5801722,26.2281621],[50.5801893,26.228139],[50.5801319,26.228073],[50.580563,26.2277197]]]}},{"type":"Feature","id":"way/204800966","properties":{"type":"way","id":204800966,"tags":{"building":"yes"},"relations":[],"meta":{}},"geometry":{"type":"Polygon","coordinates":[[[50.5801507,26.2277939],[50.5800043,26.2275832],[50.5801947,26.2274701],[50.5804361,26.2276361],[50.5801507,26.2277939]]]}},{"type":"Feature","id":"way/204801842","properties":{"type":"way","id":204801842,"tags":{"building":"yes"},"relations":[],"meta":{}},"geometry":{"type":"Polygon","coordinates":[[[50.5809768,26.2279287],[50.5807944,26.2277362],[50.580494,26.2276424],[50.5805048,26.2276039],[50.5811415,26.2277444],[50.5811646,26.2277675],[50.5809768,26.2279287]]]}},{"type":"Feature","id":"way/204802378","properties":{"type":"way","id":204802378,"tags":{"building":"yes"},"relations":[],"meta":{}},"geometry":{"type":"Polygon","coordinates":[[[50.5798306,26.2307514],[50.5797373,26.2307184],[50.5798195,26.2305313],[50.5799129,26.2305643],[50.5798306,26.2307514]]]}},{"type":"Feature","id":"way/204802379","properties":{"type":"way","id":204802379,"tags":{"building":"yes"},"relations":[],"meta":{}},"geometry":{"type":"Polygon","coordinates":[[[50.5798682,26.2310667],[50.5798914,26.2310087],[50.5801704,26.2310984],[50.5802823,26.2308182],[50.5799165,26.2307007],[50.5799494,26.2306182],[50.5804036,26.2307642],[50.5802357,26.2311848],[50.5798682,26.2310667]]]}},{"type":"Feature","id":"way/204802380","properties":{"type":"way","id":204802380,"tags":{"building":"yes"},"relations":[],"meta":{}},"geometry":{"type":"Polygon","coordinates":[[[50.5795984,26.2310063],[50.5795344,26.2309878],[50.5796522,26.2306593],[50.5794135,26.2305905],[50.5792757,26.230975],[50.5791973,26.2309524],[50.5793583,26.2305034],[50.5797392,26.2306133],[50.5795984,26.2310063]]]}},{"type":"Feature","id":"way/206014491","properties":{"type":"way","id":206014491,"tags":{"addr:housename":"10","addr:housenumber":"1-51","addr:postcode":"301","addr:street":"Road No 101","alt_name":"Building No 10","building":"house","int_name":"Building No 10","name":"Building No 10","old_name":"Building No 10","source":"Bing"},"relations":[],"meta":{}},"geometry":{"type":"Polygon","coordinates":[[[50.5815776,26.2312536],[50.5815873,26.2311784],[50.5816707,26.2309652],[50.5817095,26.2309792],[50.5818271,26.2311334],[50.5817493,26.2312945],[50.5815776,26.2312536]]]}},{"type":"Feature","id":"way/206096847","properties":{"type":"way","id":206096847,"tags":{"addr:street":"Sheikh Isa Avenue","alt_name":"MCS","building":"public","designation":"Community Center","int_name":"Maharashtra Sanskrutik Mandal","name":"Maharashtra Cultural Society","old_name":"Sanskrutik Mandal","source":"Bing"},"relations":[],"meta":{}},"geometry":{"type":"Polygon","coordinates":[[[50.581891,26.229105],[50.5819554,26.2289823],[50.5821543,26.2290618],[50.5821109,26.2291675],[50.581891,26.229105]]]}},{"type":"Feature","id":"way/219414638","properties":{"type":"way","id":219414638,"tags":{"addr:housename":"100 Residance","addr:postcode":"324","addr:street":"2427","building":"apartments","name":"100 Residance"},"relations":[],"meta":{}},"geometry":{"type":"Polygon","coordinates":[[[50.6187343,26.2128875],[50.6183803,26.2126228],[50.6187987,26.2122378],[50.6190937,26.2125651],[50.6187343,26.2128875]]]}},{"type":"Feature","id":"way/255876875","properties":{"type":"way","id":255876875,"tags":{"building":"commercial","name":"Bait al Tijjar","name:ar":"بيت التّجار"},"relations":[],"meta":{}},"geometry":{"type":"Polygon","coordinates":[[[50.5450112,26.2310363],[50.544228,26.2310123],[50.5442441,26.2303915],[50.5443836,26.2303001],[50.5450434,26.2303097],[50.5450112,26.2310363]]]}},{"type":"Feature","id":"way/284653712","properties":{"type":"way","id":284653712,"tags":{"addr:city":"Manama","addr:housenumber":"2831","addr:postcode":"428","addr:street":"Road","building":"apartments","building:levels":"7","name":"Landmark seef"},"relations":[],"meta":{}},"geometry":{"type":"Polygon","coordinates":[[[50.5398011,26.2362124],[50.5397971,26.2358842],[50.540106,26.2358806],[50.5400979,26.2362161],[50.5398011,26.2362124]]]}},{"type":"Feature","id":"way/343870633","properties":{"type":"way","id":343870633,"tags":{"building":"apartments","name":"Golden Sands Apartments"},"relations":[],"meta":{}},"geometry":{"type":"Polygon","coordinates":[[[50.5881702,26.2355476],[50.5901678,26.2363745],[50.5892413,26.2376386],[50.5887556,26.2373162],[50.5885577,26.2375246],[50.5877555,26.2370172],[50.5881214,26.2364082],[50.5879059,26.2362733],[50.5880198,26.2361201],[50.5878734,26.2360034],[50.5881702,26.2355476]]]}},{"type":"Feature","id":"way/346422963","properties":{"type":"way","id":346422963,"tags":{"building":"Government_offices","building:levels":"1","name":"Survey & Land Registration Bureau"},"relations":[],"meta":{}},"geometry":{"type":"Polygon","coordinates":[[[50.5452424,26.2310742],[50.5452424,26.2304534],[50.5459558,26.2304679],[50.5459129,26.2310646],[50.5452424,26.2310742]]]}},{"type":"Feature","id":"way/378108895","properties":{"type":"way","id":378108895,"tags":{"addr:city":"Seef","addr:postcode":"428","addr:street":"2831","building":"apartments","building:levels":"11","name":"Sun Homes"},"relations":[],"meta":{}},"geometry":{"type":"Polygon","coordinates":[[[50.5387536,26.2365471],[50.5390245,26.2364966],[50.5390218,26.2368454],[50.5387589,26.236843],[50.5387536,26.2365471]]]}},{"type":"Feature","id":"way/404091266","properties":{"type":"way","id":404091266,"tags":{"building":"yes","source":"Bing"},"relations":[],"meta":{}},"geometry":{"type":"Polygon","coordinates":[[[50.5752889,26.2379421],[50.5750872,26.2382885],[50.5747242,26.2381127],[50.5748096,26.238023],[50.5749753,26.2379378],[50.5751627,26.2379079],[50.5752889,26.2379421]]]}}]}