{"type":"FeatureCollection","features":[{"type":"Feature","id":"way/37355537","properties":{"type":"way","id":37355537,"tags":{"addr:city":"Montevideo","addr:housenumber":"565","addr:street":"Julio Herrera y Reissig","amenity":"university","building":"university","name":"Facultad de Ingeniería","operator":"Universidad de la República"},"relations":[],"meta":{}},"geometry":{"type":"Polygon","coordinates":[[[-56.1671011,-34.917775],[-56.1670667,-34.9183873],[-56.1668696,-34.9183798],[-56.1668403,-34.9189012],[-56.1665868,-34.9188916],[-56.1665861,-34.918904],[-56.1665795,-34.919021],[-56.166976,-34.919036],[-56.166965,-34.9192334],[-56.1661777,-34.9192037],[-56.1661715,-34.9193136],[-56.1660426,-34.9193087],[-56.1660694,-34.9188311],[-56.1661884,-34.9188356],[-56.1661786,-34.9190093],[-56.1665078,-34.9190217],[-56.1665168,-34.918861],[-56.1665468,-34.9183284],[-56.166303,-34.9183192],[-56.1663106,-34.9181848],[-56.166313,-34.9181416],[-56.1663936,-34.9181446],[-56.166588,-34.918152],[-56.1665901,-34.9181158],[-56.1666903,-34.9181196],[-56.1667122,-34.9177286],[-56.1668946,-34.9177354],[-56.1668996,-34.9176471],[-56.1666159,-34.9176364],[-56.1666274,-34.9174305],[-56.1670979,-34.9174482],[-56.1670896,-34.9175964],[-56.1670532,-34.917595],[-56.1670432,-34.9177728],[-56.1671011,-34.917775]]]}},{"type":"Feature","id":"way/37514653","properties":{"type":"way","id":37514653,"tags":{"amenity":"hospital","building":"hospital","building:levels":"23","emergency":"yes","height":"91","name":"Hospital de Clínicas \"Doctor Manuel Quintela\"","website":"http://www.hc.edu.uy/"},"relations":[],"meta":{}},"geometry":{"type":"Polygon","coordinates":[[[-56.1533623,-34.8916172],[-56.1529945,-34.8918423],[-56.1530241,-34.8918806],[-56.152805,-34.8920016],[-56.1527765,-34.8919845],[-56.1526682,-34.8920202],[-56.1524242,-34.8919263],[-56.1521144,-34.8917874],[-56.1518729,-34.891687],[-56.1517104,-34.8920059],[-56.1519605,-34.8921281],[-56.151921,-34.8921961],[-56.1516509,-34.8920737],[-56.1514371,-34.8920401],[-56.1511233,-34.8920495],[-56.151114,-34.8919653],[-56.1514557,-34.8919537],[-56.1515442,-34.8915821],[-56.1509289,-34.8915108],[-56.1509706,-34.8913509],[-56.1510261,-34.8913575],[-56.1510585,-34.8912139],[-56.1511488,-34.8912233],[-56.1511178,-34.8913684],[-56.151268,-34.8913862],[-56.1512977,-34.8912386],[-56.151415,-34.8912507],[-56.1513795,-34.8913995],[-56.1515337,-34.8914178],[-56.1515745,-34.8912671],[-56.1516812,-34.8912782],[-56.1516429,-34.8914308],[-56.1519078,-34.8915059],[-56.1519848,-34.8913751],[-56.1520756,-34.8914143],[-56.1519954,-34.8915442],[-56.1521335,-34.8916048],[-56.1522136,-34.8914739],[-56.1522981,-34.8915104],[-56.1522255,-34.891645],[-56.1523603,-34.8917041],[-56.1524367,-34.8915702],[-56.152527,-34.8916092],[-56.1524521,-34.8917443],[-56.1524964,-34.8917632],[-56.152796,-34.8912394],[-56.1531507,-34.8913239],[-56.1530825,-34.8914669],[-56.1529265,-34.8914289],[-56.1527293,-34.8917455],[-56.1528256,-34.891779],[-56.1532765,-34.8915028],[-56.1533623,-34.8916172]]]}},{"type":"Feature","id":"way/37584694","properties":{"type":"way","id":37584694,"tags":{"building":"parliament","name":"Parlamento Mercosur","name:en":"Mercosur Parliament"},"relations":[],"meta":{}},"geometry":{"type":"Polygon","coordinates":[[[-56.1717488,-34.9138667],[-56.1718155,-34.9142609],[-56.1708881,-34.9143664],[-56.170884,-34.9143423],[-56.1707755,-34.9143546],[-56.1707406,-34.9143348],[-56.1707252,-34.914254],[-56.1706037,-34.9142696],[-56.170623,-34.9143709],[-56.1704057,-34.9143988],[-56.1702983,-34.9138352],[-56.1702551,-34.9138408],[-56.1702355,-34.9137382],[-56.1703517,-34.9137234],[-56.1703544,-34.9137014],[-56.170897,-34.9136396],[-56.1709508,-34.9139575],[-56.1717488,-34.9138667]]]}},{"type":"Feature","id":"way/37609842","properties":{"type":"way","id":37609842,"tags":{"amenity":"ferry_terminal","building":"transportation","name":"Buquebus"},"relations":[],"meta":{}},"geometry":{"type":"Polygon","coordinates":[[[-56.2142146,-34.9020432],[-56.214274,-34.9020614],[-56.2137937,-34.9030218],[-56.213425,-34.902902],[-56.2135709,-34.9025711],[-56.2138713,-34.9026767],[-56.2142146,-34.9020432]]]}},{"type":"Feature","id":"way/37690540","properties":{"type":"way","id":37690540,"tags":{"building":"yes","name":"Castillo del Parque Rodó","note":"Esto se llama \"Castillo..\" pero no es historic=castle ..."},"relations":[],"meta":{}},"geometry":{"type":"Polygon","coordinates":[[[-56.1664162,-34.9124158],[-56.1664833,-34.9122481],[-56.1664719,-34.9122464],[-56.1664873,-34.9121914],[-56.1665591,-34.9121991],[-56.166549,-34.9122481],[-56.1666422,-34.9122646],[-56.1666389,-34.9123448],[-56.1666945,-34.9123542],[-56.1667059,-34.912347],[-56.166712,-34.9123525],[-56.1667059,-34.9123597],[-56.1667301,-34.9123586],[-56.1667455,-34.9123712],[-56.1667361,-34.9123888],[-56.1667059,-34.9123883],[-56.1666965,-34.9123789],[-56.1666375,-34.9123734],[-56.1666335,-34.9124009],[-56.1666295,-34.9124697],[-56.166435,-34.9124427],[-56.1664136,-34.9124576],[-56.1663941,-34.9124576],[-56.1663814,-34.9124449],[-56.1663794,-34.9124312],[-56.1663955,-34.9124169],[-56.1664162,-34.9124158]]]}},{"type":"Feature","id":"way/40523228","properties":{"type":"way","id":40523228,"tags":{"amenity":"school","building":"yes","name":"UTU Central"},"relations":[],"meta":{}},"geometry":{"type":"Polygon","coordinates":[[[-56.1781628,-34.9115354],[-56.1791045,-34.9116034],[-56.1790462,-34.9121808],[-56.1780989,-34.9121139],[-56.1781628,-34.9115354]]]}},{"type":"Feature","id":"way/56382400","properties":{"type":"way","id":56382400,"tags":{"addr:city":"Montevideo","addr:country":"UY","addr:housenumber":"1824","addr:postcode":"11200","addr:street":"Avenida 18 de Julio","amenity":"university","building":"university","name":"Facultad de Derecho","name:de":"Fakultät für Rechtswissenschaft","name:es":"Facultad de Derecho","phone":"2408 3311","website":"www.fder.edu.uy","wheelchair":"limited"},"relations":[],"meta":{}},"geometry":{"type":"Polygon","coordinates":[[[-56.1767837,-34.9030264],[-56.1759987,-34.9027255],[-56.176288,-34.9022177],[-56.1770731,-34.9025186],[-56.1767837,-34.9030264]]]}},{"type":"Feature","id":"way/81683741","properties":{"type":"way","id":81683741,"tags":{"building":"civic","historic":"monument","name":"Palacio Legislativo","tourism":"attraction","wikidata":"Q283417"},"relations":[],"meta":{}},"geometry":{"type":"Polygon","coordinates":[[[-56.1874689,-34.8907713],[-56.1875455,-34.890926],[-56.1876122,-34.8909037],[-56.1877274,-34.8911365],[-56.1876698,-34.8911556],[-56.1877654,-34.8913486],[-56.1874476,-34.8914544],[-56.1874661,-34.8914917],[-56.1872474,-34.8915646],[-56.1872303,-34.89153],[-56.18688,-34.8916467],[-56.1867889,-34.8914629],[-56.1867032,-34.8914914],[-56.1865891,-34.891261],[-56.1866634,-34.8912363],[-56.1865823,-34.8910725],[-56.1869381,-34.8909539],[-56.1869209,-34.8909191],[-56.1871412,-34.8908457],[-56.187156,-34.8908756],[-56.1874689,-34.8907713]]]}},{"type":"Feature","id":"way/81685413","properties":{"type":"way","id":81685413,"tags":{"building":"train_station","disused":"yes","name":"Estación Central General Artigas","wikipedia":"es:Estación Central General Artigas"},"relations":[],"meta":{}},"geometry":{"type":"Polygon","coordinates":[[[-56.1943365,-34.8979002],[-56.1941914,-34.8992409],[-56.1932759,-34.8991759],[-56.1934304,-34.8978352],[-56.1943365,-34.8979002]]]}},{"type":"Feature","id":"way/81799045","properties":{"type":"way","id":81799045,"tags":{"addr:city":"Montevideo","addr:postcode":"11000","amenity":"theatre","building":"yes","name":"Teatro Solís","operator":"Intendencia de Montevideo","phone":"+5982 1950 3323;+5982 1950 3325;+5982 1950 1856","website":"www.teatrosolis.org.uy","wheelchair":"yes","wikidata":"Q1570788","wikipedia":"es:Teatro Solís"},"relations":[],"meta":{}},"geometry":{"type":"Polygon","coordinates":[[[-56.200564,-34.9080948],[-56.2008433,-34.907449],[-56.2008833,-34.9074436],[-56.2009048,-34.9074084],[-56.200986,-34.9074364],[-56.2010143,-34.9074829],[-56.2010153,-34.9075398],[-56.2011326,-34.9075751],[-56.2012567,-34.907612],[-56.2012899,-34.9075687],[-56.2013486,-34.9075534],[-56.2014479,-34.907578],[-56.2014499,-34.9076012],[-56.2014753,-34.9076432],[-56.2013386,-34.9079303],[-56.2011746,-34.9082747],[-56.200564,-34.9080948]]]}},{"type":"Feature","id":"way/82094007","properties":{"type":"way","id":82094007,"tags":{"amenity":"hospital","building":"yes","name":"Médica Uruguaya"},"relations":[],"meta":{}},"geometry":{"type":"Polygon","coordinates":[[[-56.1630855,-34.8931806],[-56.1623727,-34.8936041],[-56.161919,-34.8934169],[-56.1628357,-34.892862],[-56.1630855,-34.8931806]]]}},{"type":"Feature","id":"way/82097089","properties":{"type":"way","id":82097089,"tags":{"building":"hospital"},"relations":[],"meta":{}},"geometry":{"type":"Polygon","coordinates":[[[-56.2124603,-34.9081322],[-56.2121125,-34.9088565],[-56.2112792,-34.9085754],[-56.2115942,-34.9078511],[-56.2124603,-34.9081322]]]}},{"type":"Feature","id":"way/82097653","properties":{"type":"way","id":82097653,"tags":{"amenity":"hospital","building":"yes","name":"Hospital Italiano Umberto I","wikidata":"Q1172515"},"relations":[],"meta":{}},"geometry":{"type":"Polygon","coordinates":[[[-56.1639028,-34.8965108],[-56.1642829,-34.8949016],[-56.1643328,-34.8949156],[-56.1646663,-34.8954459],[-56.1645467,-34.8965686],[-56.1644717,-34.8966471],[-56.164377,-34.8966949],[-56.1639028,-34.8965108]]]}},{"type":"Feature","id":"way/116767301","properties":{"type":"way","id":116767301,"tags":{"addr:city":"Montevideo","addr:country":"UY","addr:housenumber":"1373","addr:street":"Ituzaingó","amenity":"place_of_worship","building":"cathedral","denomination":"catholic","name":"Catedral Metropolitana","opening_hours":"Mo-Fr 15:00-18:00","religion":"christian","service_times":"Sa 17:00; Su 11:00; Su 17:00","wheelchair":"yes","wikipedia":"es:Catedral Metropolitana de Montevideo"},"relations":[],"meta":{}},"geometry":{"type":"Polygon","coordinates":[[[-56.2040456,-34.9068218],[-56.2050298,-34.9071406],[-56.2048688,-34.907475],[-56.2038845,-34.9071563],[-56.2040456,-34.9068218]]]}},{"type":"Feature","id":"way/119878155","properties":{"type":"way","id":119878155,"tags":{"amenity":"embassy","building":"yes","country":"RU","email":"embaru@montevideo.com.uy","name":"Embajada de la Federación de Rusia","phone":"+(598)2708-1884"},"relations":[],"meta":{}},"geometry":{"type":"Polygon","coordinates":[[[-56.1534936,-34.9139225],[-56.1535275,-34.9133538],[-56.1536214,-34.9133345],[-56.1535849,-34.9132156],[-56.1537838,-34.9131716],[-56.1538242,-34.9132942],[-56.1540146,-34.9132521],[-56.1542272,-34.9137122],[-56.1534936,-34.9139225]]]}},{"type":"Feature","id":"way/142543498","properties":{"type":"way","id":142543498,"tags":{"amenity":"college","building":"yes","name":"Instituto Tecnológico de Informática - UTU"},"relations":[],"meta":{}},"geometry":{"type":"Polygon","coordinates":[[[-56.1869071,-34.9106312],[-56.1867952,-34.9106263],[-56.1868073,-34.9103858],[-56.1869201,-34.9103925],[-56.1869071,-34.9106312]]]}},{"type":"Feature","id":"way/142545352","properties":{"type":"way","id":142545352,"tags":{"alt_name":"Centro de Telemedicina","building":"yes","emergency":"no","name":"Fundación Peluffo Giguens","source":"local knowledge"},"relations":[],"meta":{}},"geometry":{"type":"Polygon","coordinates":[[[-56.1640496,-34.8995474],[-56.1641661,-34.8995511],[-56.1641646,-34.8995916],[-56.1641622,-34.8996564],[-56.1641796,-34.8996569],[-56.1641753,-34.8997016],[-56.1640967,-34.8996996],[-56.1640974,-34.899681],[-56.1640255,-34.8996792],[-56.1640249,-34.8996951],[-56.1639828,-34.899689],[-56.1639649,-34.8996689],[-56.1639669,-34.8996355],[-56.1639916,-34.8996158],[-56.1640526,-34.8996184],[-56.1640537,-34.8995985],[-56.1640145,-34.8995969],[-56.1640164,-34.8995458],[-56.1640496,-34.8995474]]]}},{"type":"Feature","id":"way/142608529","properties":{"type":"way","id":142608529,"tags":{"amenity":"university","building":"university","name":"Aulario José Luis Massera","operator":"Universidad de la República"},"relations":[],"meta":{}},"geometry":{"type":"Polygon","coordinates":[[[-56.16659,-34.9170018],[-56.1672573,-34.9170355],[-56.1672392,-34.9172769],[-56.1665719,-34.9172432],[-56.16659,-34.9170018]]]}},{"type":"Feature","id":"way/142608667","properties":{"type":"way","id":142608667,"tags":{"addr:city":"Montevideo","addr:housename":"Anexo - Facultad de Ingeniería","addr:housenumber":"565","addr:postcode":"11300","addr:street":"Julio Herrera y Reissig","amenity":"university","building":"office","name":"Anexo, Facultad de Ingeniería, Universidad de la República","wheelchair":"yes"},"relations":[],"meta":{}},"geometry":{"type":"Polygon","coordinates":[[[-56.1675865,-34.9186319],[-56.1675835,-34.9184428],[-56.1677712,-34.9184408],[-56.1677742,-34.9186299],[-56.1675865,-34.9186319]]]}},{"type":"Feature","id":"way/156270272","properties":{"type":"way","id":156270272,"tags":{"building":"yes","emergency":"yes","name":"Pediatría"},"relations":[],"meta":{}},"geometry":{"type":"Polygon","coordinates":[[[-56.1636031,-34.8981789],[-56.163536,-34.89815],[-56.1635112,-34.8981882],[-56.1634126,-34.8981514],[-56.1634255,-34.898114],[-56.1632605,-34.8980973],[-56.1630971,-34.8981177],[-56.1629356,-34.8981482],[-56.1629577,-34.8981989],[-56.162775,-34.8982396],[-56.1627571,-34.8981816],[-56.1624282,-34.8982613],[-56.1623717,-34.8981117],[-56.1628626,-34.8979746],[-56.1628045,-34.8978127],[-56.1629075,-34.8977848],[-56.1629794,-34.8977693],[-56.1630762,-34.8977577],[-56.1631339,-34.8977554],[-56.1631429,-34.8978094],[-56.1632326,-34.8978106],[-56.1632316,-34.8977431],[-56.1633275,-34.8977509],[-56.1634101,-34.8977707],[-56.1634011,-34.8978211],[-56.1634982,-34.897844],[-56.1634386,-34.8979742],[-56.1636637,-34.8980619],[-56.1636031,-34.8981789]]]}},{"type":"Feature","id":"way/175956252","properties":{"type":"way","id":175956252,"tags":{"amenity":"embassy","building":"yes","country":"JP","diplomatic":"embassy","name":"Embajada de Japón","name:en":"Embassy of Japan"},"relations":[],"meta":{}},"geometry":{"type":"Polygon","coordinates":[[[-56.1637297,-34.9113578],[-56.1635844,-34.9116866],[-56.1635675,-34.9117717],[-56.1635634,-34.9118266],[-56.1635526,-34.9118364],[-56.1635335,-34.9118393],[-56.1634892,-34.9118233],[-56.163447,-34.9118038],[-56.163397,-34.9117637],[-56.1633532,-34.9117202],[-56.1633472,-34.9116607],[-56.1633509,-34.9115999],[-56.1634306,-34.9112726],[-56.1637297,-34.9113578]]]}},{"type":"Feature","id":"way/175956287","properties":{"type":"way","id":175956287,"tags":{"addr:city":"Montevideo","addr:housenumber":"1031","addr:postcode":"11200","addr:street":"Bulevar General Artigas","amenity":"university","building":"yes","name":"Facultad de Arquitectura. Universidad de la República","phone":"+59824001106","website":"www.farq.edu.uy"},"relations":[],"meta":{}},"geometry":{"type":"Polygon","coordinates":[[[-56.1636923,-34.9094478],[-56.1636569,-34.9094452],[-56.1636609,-34.9094029],[-56.1638018,-34.9094116],[-56.1641556,-34.9098385],[-56.1641001,-34.9098683],[-56.1642747,-34.9100825],[-56.1643269,-34.9100511],[-56.1644943,-34.9102502],[-56.1644826,-34.910357],[-56.1643885,-34.9103711],[-56.1644235,-34.9104182],[-56.1642407,-34.9104822],[-56.1641179,-34.9105159],[-56.1639953,-34.9105354],[-56.163813,-34.9105419],[-56.1638031,-34.9105148],[-56.1637836,-34.910515],[-56.1637717,-34.9106509],[-56.1636227,-34.9106477],[-56.1636229,-34.9106792],[-56.1635421,-34.9106758],[-56.1636152,-34.9098423],[-56.1635583,-34.9098406],[-56.1635749,-34.9096898],[-56.1636681,-34.9096942],[-56.1636923,-34.9094478]]]}},{"type":"Feature","id":"way/179066483","properties":{"type":"way","id":179066483,"tags":{"amenity":"food_court","building":"yes","name":"Mercado del Puerto","tourism":"attraction","website":"http://www.mercadodelpuerto.com.uy/","wikipedia":"es:Mercado del Puerto"},"relations":[],"meta":{}},"geometry":{"type":"Polygon","coordinates":[[[-56.2117632,-34.9061315],[-56.211348,-34.9059577],[-56.2116688,-34.9052696],[-56.2121005,-34.9054377],[-56.2117632,-34.9061315]]]}},{"type":"Feature","id":"way/179066657","properties":{"type":"way","id":179066657,"tags":{"addr:city":"Montevideo","addr:country":"UY","addr:housenumber":"710","addr:postcode":"11000","addr:street":"Plaza Independencia","building":"office","building:levels":"12","description":"Sede de la Presidencia de la República Oriental del Uruguay.","height":"56","name":"Torre Ejecutiva","office":"government","wikipedia":"es:Torre Ejecutiva"},"relations":[],"meta":{}},"geometry":{"type":"Polygon","coordinates":[[[-56.2005156,-34.9072132],[-56.2004138,-34.907468],[-56.1998025,-34.9074115],[-56.199835,-34.9070631],[-56.200452,-34.9070989],[-56.2004429,-34.9071848],[-56.2005156,-34.9072132]]]}},{"type":"Feature","id":"way/179391797","properties":{"type":"way","id":179391797,"tags":{"amenity":"place_of_worship","building":"church","denomination":"catholic","religion":"christian"},"relations":[],"meta":{}},"geometry":{"type":"Polygon","coordinates":[[[-56.1832169,-34.9039847],[-56.1829405,-34.9044637],[-56.1827142,-34.904377],[-56.1829852,-34.9038946],[-56.1832169,-34.9039847]]]}},{"type":"Feature","id":"way/179392905","properties":{"type":"way","id":179392905,"tags":{"amenity":"community_centre","building":"yes","name":"Municipio B","opening_hours":"Mo-Fr 10:00-18:00"},"relations":[],"meta":{}},"geometry":{"type":"Polygon","coordinates":[[[-56.1714845,-34.897203],[-56.1714772,-34.8973473],[-56.1714301,-34.8973983],[-56.1711985,-34.8972963],[-56.1712097,-34.8971788],[-56.1714845,-34.897203]]]}},{"type":"Feature","id":"way/179494473","properties":{"type":"way","id":179494473,"tags":{"building":"civic","name":"Edificio José Artigas"},"relations":[],"meta":{}},"geometry":{"type":"Polygon","coordinates":[[[-56.1895334,-34.890267],[-56.1894585,-34.8910012],[-56.1889878,-34.8909759],[-56.1889194,-34.8909429],[-56.1888051,-34.8907808],[-56.1886767,-34.890534],[-56.1886039,-34.8902939],[-56.1886806,-34.8902106],[-56.1895334,-34.890267]]]}},{"type":"Feature","id":"way/179739487","properties":{"type":"way","id":179739487,"tags":{"addr:city":"Montevideo","amenity":"marketplace","building":"retail","name":"Mercado de los Artesanos"},"relations":[],"meta":{}},"geometry":{"type":"Polygon","coordinates":[[[-56.1878115,-34.9066759],[-56.1877758,-34.907002],[-56.1873775,-34.9069727],[-56.1874133,-34.9066466],[-56.1878115,-34.9066759]]]}},{"type":"Feature","id":"way/179739488","properties":{"type":"way","id":179739488,"tags":{"building":"yes","leisure":"stadium","name":"Palacio Peñarol Gastón Güelfi","sport":"basketball"},"relations":[],"meta":{}},"geometry":{"type":"Polygon","coordinates":[[[-56.1831506,-34.8987848],[-56.1831557,-34.898842],[-56.1831298,-34.8989268],[-56.1830609,-34.8990557],[-56.1829469,-34.8991729],[-56.1828606,-34.8992387],[-56.1827246,-34.8992992],[-56.1826499,-34.8992662],[-56.1826629,-34.8992439],[-56.1821786,-34.8990593],[-56.1822648,-34.8989192],[-56.1822872,-34.8989292],[-56.1822958,-34.8988648],[-56.1823159,-34.8988059],[-56.1823504,-34.8987367],[-56.1823945,-34.8986653],[-56.1824424,-34.8986095],[-56.1824912,-34.8985694],[-56.1824756,-34.8985475],[-56.182524,-34.8985097],[-56.1826346,-34.898601],[-56.1827083,-34.8985843],[-56.1827898,-34.8986016],[-56.1828788,-34.8986306],[-56.1829488,-34.8986621],[-56.1830015,-34.8987037],[-56.1830331,-34.8987707],[-56.1831506,-34.8987848]]]}},{"type":"Feature","id":"way/179739490","properties":{"type":"way","id":179739490,"tags":{"amenity":"place_of_worship","building":"church","denomination":"anglican","name":"Templo Inglés","religion":"christian","wikidata":"Q1273950"},"relations":[],"meta":{}},"geometry":{"type":"Polygon","coordinates":[[[-56.2037167,-34.9092094],[-56.2037059,-34.9095565],[-56.2035469,-34.9095532],[-56.2035577,-34.9092061],[-56.2037167,-34.9092094]]]}},{"type":"Feature","id":"way/181147490","properties":{"type":"way","id":181147490,"tags":{"building":"hangar"},"relations":[],"meta":{}},"geometry":{"type":"Polygon","coordinates":[[[-56.2100896,-34.9035094],[-56.2098749,-34.9039239],[-56.2090812,-34.9036474],[-56.2092959,-34.9032329],[-56.2100896,-34.9035094]]]}},{"type":"Feature","id":"way/181147491","properties":{"type":"way","id":181147491,"tags":{"building":"hangar"},"relations":[],"meta":{}},"geometry":{"type":"Polygon","coordinates":[[[-56.2110232,-34.9038098],[-56.2108102,-34.9042288],[-56.2100126,-34.9039561],[-56.2102256,-34.903537],[-56.2110232,-34.9038098]]]}},{"type":"Feature","id":"way/182630280","properties":{"type":"way","id":182630280,"tags":{"amenity":"public_building","building":"yes","name":"ANTEL Cordón"},"relations":[],"meta":{}},"geometry":{"type":"Polygon","coordinates":[[[-56.174813,-34.9003242],[-56.1752104,-34.9004725],[-56.1749746,-34.9008544],[-56.1745949,-34.9007164],[-56.174813,-34.9003242]]]}},{"type":"Feature","id":"way/182630281","properties":{"type":"way","id":182630281,"tags":{"amenity":"public_building","building":"yes","name":"Banco Hipotecario del Uruguay. Casa Central"},"relations":[],"meta":{}},"geometry":{"type":"Polygon","coordinates":[[[-56.1741457,-34.9005471],[-56.1745949,-34.9007164],[-56.1749746,-34.9008544],[-56.1752378,-34.9009577],[-56.1749458,-34.9014334],[-56.173875,-34.9010139],[-56.1741457,-34.9005471]]]}},{"type":"Feature","id":"way/182630284","properties":{"type":"way","id":182630284,"tags":{"amenity":"public_building","building":"office","building:levels":"5","name":"Banco de Previsión Social"},"relations":[],"meta":{}},"geometry":{"type":"Polygon","coordinates":[[[-56.1770949,-34.9003602],[-56.1771237,-34.9004141],[-56.176885,-34.9008071],[-56.1768276,-34.9008096],[-56.1760803,-34.9002681],[-56.1760799,-34.9002216],[-56.1762418,-34.9000694],[-56.1763117,-34.9000604],[-56.1770949,-34.9003602]]]}},{"type":"Feature","id":"way/182630285","properties":{"type":"way","id":182630285,"tags":{"amenity":"public_building","building":"yes","name":"Banco de Previsión Social"},"relations":[],"meta":{}},"geometry":{"type":"Polygon","coordinates":[[[-56.1749696,-34.8996874],[-56.17565,-34.8998588],[-56.1754143,-34.9002533],[-56.1753346,-34.9002246],[-56.1752899,-34.9003009],[-56.1752391,-34.9002831],[-56.1752173,-34.9003158],[-56.1744874,-34.9000075],[-56.1749696,-34.8996874]]]}},{"type":"Feature","id":"way/182630286","properties":{"type":"way","id":182630286,"tags":{"amenity":"hospital","building":"yes","name":"CASMU Sanatorio 1"},"relations":[],"meta":{}},"geometry":{"type":"Polygon","coordinates":[[[-56.174813,-34.9003242],[-56.1745949,-34.9007164],[-56.1741457,-34.9005471],[-56.1743383,-34.9001542],[-56.174813,-34.9003242]]]}},{"type":"Feature","id":"way/182630287","properties":{"type":"way","id":182630287,"tags":{"amenity":"public_building","building":"yes","name":"Dirección General Impositiva"},"relations":[],"meta":{}},"geometry":{"type":"Polygon","coordinates":[[[-56.1752104,-34.9004725],[-56.1754668,-34.9005787],[-56.1752378,-34.9009577],[-56.1749746,-34.9008544],[-56.1752104,-34.9004725]]]}},{"type":"Feature","id":"way/204738355","properties":{"type":"way","id":204738355,"tags":{"building":"yes"},"relations":[],"meta":{}},"geometry":{"type":"Polygon","coordinates":[[[-56.2170015,-34.9035831],[-56.2160142,-34.904223],[-56.2158096,-34.9040107],[-56.2167969,-34.9033708],[-56.2170015,-34.9035831]]]}},{"type":"Feature","id":"way/204738356","properties":{"type":"way","id":204738356,"tags":{"building":"yes"},"relations":[],"meta":{}},"geometry":{"type":"Polygon","coordinates":[[[-56.2128414,-34.9023282],[-56.2130427,-34.9025405],[-56.2120514,-34.9031728],[-56.2118501,-34.9029606],[-56.2128414,-34.9023282]]]}},{"type":"Feature","id":"way/204738357","properties":{"type":"way","id":204738357,"tags":{"building":"yes"},"relations":[],"meta":{}},"geometry":{"type":"Polygon","coordinates":[[[-56.2015777,-34.9009319],[-56.2015107,-34.9010847],[-56.20077,-34.9008665],[-56.200837,-34.9007137],[-56.2015777,-34.9009319]]]}},{"type":"Feature","id":"way/204738358","properties":{"type":"way","id":204738358,"tags":{"building":"yes"},"relations":[],"meta":{}},"geometry":{"type":"Polygon","coordinates":[[[-56.2141884,-34.9017954],[-56.213217,-34.9024225],[-56.2130181,-34.9022153],[-56.2139895,-34.9015882],[-56.2141884,-34.9017954]]]}},{"type":"Feature","id":"way/204738359","properties":{"type":"way","id":204738359,"tags":{"building":"yes"},"relations":[],"meta":{}},"geometry":{"type":"Polygon","coordinates":[[[-56.2156428,-34.9041237],[-56.2158512,-34.9043386],[-56.2148645,-34.9049819],[-56.2146561,-34.9047669],[-56.2156428,-34.9041237]]]}},{"type":"Feature","id":"way/204738360","properties":{"type":"way","id":204738360,"tags":{"building":"yes"},"relations":[],"meta":{}},"geometry":{"type":"Polygon","coordinates":[[[-56.2021452,-34.9012572],[-56.2020683,-34.90142],[-56.2017198,-34.9013172],[-56.2018005,-34.9011535],[-56.2021452,-34.9012572]]]}},{"type":"Feature","id":"way/204738361","properties":{"type":"way","id":204738361,"tags":{"building":"yes"},"relations":[],"meta":{}},"geometry":{"type":"Polygon","coordinates":[[[-56.200481,-34.9004763],[-56.2004066,-34.9006391],[-56.2000567,-34.9005316],[-56.2001311,-34.9003687],[-56.200481,-34.9004763]]]}},{"type":"Feature","id":"way/205235057","properties":{"type":"way","id":205235057,"tags":{"building":"yes","landuse":"grass","leisure":"sports_centre","mvdgis:nro_espaci":"2457","mvdgis:source":"v_mdg_espacios_libres","name":"Defensor Sporting Club","source":"mvdgis","sport":"gymnastics"},"relations":[],"meta":{}},"geometry":{"type":"Polygon","coordinates":[[[-56.1641073,-34.9125578],[-56.1641043,-34.9125567],[-56.1641014,-34.9125555],[-56.1640985,-34.9125542],[-56.1640957,-34.9125529],[-56.1640929,-34.9125514],[-56.1640902,-34.9125499],[-56.1640876,-34.9125483],[-56.164085,-34.9125466],[-56.1640825,-34.9125449],[-56.1640801,-34.9125431],[-56.1640777,-34.9125412],[-56.1640755,-34.9125393],[-56.1640733,-34.9125372],[-56.1640712,-34.9125352],[-56.1640692,-34.9125331],[-56.1640673,-34.9125309],[-56.1640654,-34.9125286],[-56.1640637,-34.9125263],[-56.1640621,-34.912524],[-56.1640605,-34.9125216],[-56.1640591,-34.9125192],[-56.1640577,-34.9125168],[-56.1640565,-34.9125143],[-56.1640554,-34.9125117],[-56.1640544,-34.9125092],[-56.1640534,-34.9125066],[-56.1640526,-34.912504],[-56.1640519,-34.9125013],[-56.1640514,-34.9124987],[-56.1640509,-34.912496],[-56.1640505,-34.9124933],[-56.1640503,-34.9124906],[-56.1640501,-34.9124879],[-56.1640501,-34.9124853],[-56.1640502,-34.9124826],[-56.1640504,-34.9124799],[-56.1640507,-34.9124772],[-56.1640511,-34.9124745],[-56.1640517,-34.9124719],[-56.1640523,-34.9124692],[-56.1640531,-34.9124666],[-56.1640539,-34.912464],[-56.1640549,-34.9124614],[-56.164056,-34.9124589],[-56.1640572,-34.9124564],[-56.1640585,-34.9124539],[-56.1640599,-34.9124514],[-56.1640614,-34.912449],[-56.164063,-34.9124467],[-56.1640647,-34.9124444],[-56.1640664,-34.9124421],[-56.1640683,-34.9124399],[-56.1646831,-34.9120357],[-56.164685,-34.9120344],[-56.1646869,-34.9120331],[-56.1646889,-34.9120319],[-56.1646909,-34.9120307],[-56.164693,-34.9120296],[-56.1646952,-34.9120286],[-56.1646973,-34.9120276],[-56.1646995,-34.9120267],[-56.1647018,-34.9120258],[-56.1647041,-34.9120251],[-56.1647064,-34.9120243],[-56.1647087,-34.9120237],[-56.1647111,-34.9120231],[-56.1647135,-34.9120226],[-56.1647159,-34.9120221],[-56.1647183,-34.9120217],[-56.1647208,-34.9120214],[-56.1647233,-34.9120212],[-56.1647257,-34.912021],[-56.1647282,-34.9120209],[-56.1647307,-34.9120209],[-56.1647331,-34.9120209],[-56.1647356,-34.912021],[-56.1647381,-34.9120212],[-56.1647405,-34.9120214],[-56.164743,-34.9120217],[-56.1647454,-34.9120221],[-56.1647478,-34.9120226],[-56.1647502,-34.9120231],[-56.1647526,-34.9120237],[-56.1647549,-34.9120244],[-56.1647572,-34.9120251],[-56.1647595,-34.9120259],[-56.1647618,-34.9120267],[-56.164764,-34.9120276],[-56.1647662,-34.9120286],[-56.1647683,-34.9120297],[-56.1647704,-34.9120308],[-56.1647724,-34.9120319],[-56.1647744,-34.9120331],[-56.1647763,-34.9120344],[-56.1647782,-34.9120357],[-56.16478,-34.9120371],[-56.1647818,-34.9120385],[-56.1647835,-34.91204],[-56.1647851,-34.9120416],[-56.1647867,-34.9120431],[-56.1647882,-34.9120447],[-56.1647897,-34.9120464],[-56.1648195,-34.9120773],[-56.1648507,-34.9121074],[-56.1648831,-34.9121365],[-56.1649168,-34.9121647],[-56.1649516,-34.9121919],[-56.1649875,-34.9122181],[-56.1650246,-34.9122432],[-56.1650627,-34.9122672],[-56.1650998,-34.9122897],[-56.1651378,-34.9123112],[-56.1651767,-34.9123317],[-56.1652163,-34.9123512],[-56.1652566,-34.9123696],[-56.1652977,-34.9123869],[-56.1653394,-34.9124031],[-56.1653817,-34.9124182],[-56.1654246,-34.9124322],[-56.165468,-34.912445],[-56.1655119,-34.9124567],[-56.1655144,-34.9124572],[-56.1655169,-34.9124578],[-56.1655194,-34.9124584],[-56.1655218,-34.9124591],[-56.1655242,-34.9124598],[-56.1655266,-34.9124607],[-56.1655289,-34.9124616],[-56.1655312,-34.9124625],[-56.1655335,-34.9124636],[-56.1655357,-34.9124647],[-56.1655379,-34.9124658],[-56.16554,-34.912467],[-56.165542,-34.9124683],[-56.165544,-34.9124697],[-56.165546,-34.912471],[-56.1655479,-34.9124725],[-56.1655497,-34.912474],[-56.1655515,-34.9124756],[-56.1655532,-34.9124772],[-56.1655548,-34.9124788],[-56.1655563,-34.9124805],[-56.1655578,-34.9124822],[-56.1655592,-34.912484],[-56.1655606,-34.9124858],[-56.1655618,-34.9124877],[-56.165563,-34.9124896],[-56.1655641,-34.9124915],[-56.1655651,-34.9124935],[-56.165566,-34.9124955],[-56.1655669,-34.9124975],[-56.1655676,-34.9124995],[-56.1655683,-34.9125015],[-56.1655689,-34.9125036],[-56.1655694,-34.9125057],[-56.1655622,-34.9126011],[-56.1655622,-34.9126029],[-56.1655621,-34.9126047],[-56.165562,-34.9126065],[-56.1655618,-34.9126083],[-56.1655616,-34.9126101],[-56.1655612,-34.9126119],[-56.1655608,-34.9126136],[-56.1655603,-34.9126154],[-56.1655597,-34.9126171],[-56.1655591,-34.9126188],[-56.1655584,-34.9126205],[-56.1655576,-34.9126222],[-56.1655568,-34.9126239],[-56.1655559,-34.9126255],[-56.1655549,-34.9126271],[-56.1655538,-34.9126287],[-56.1655527,-34.9126302],[-56.1655516,-34.9126318],[-56.1655503,-34.9126332],[-56.165549,-34.9126347],[-56.1655477,-34.9126361],[-56.1655463,-34.9126375],[-56.1655448,-34.9126388],[-56.1655433,-34.9126401],[-56.1655417,-34.9126413],[-56.16554,-34.9126425],[-56.1655384,-34.9126436],[-56.1655366,-34.9126447],[-56.1655349,-34.9126458],[-56.1655331,-34.9126468],[-56.1655312,-34.9126477],[-56.1655293,-34.9126486],[-56.1655274,-34.9126495],[-56.1655254,-34.9126503],[-56.1655234,-34.912651],[-56.1655214,-34.9126517],[-56.1655194,-34.9126523],[-56.1655173,-34.9126529],[-56.1655152,-34.9126534],[-56.1655131,-34.9126538],[-56.1655109,-34.9126542],[-56.1655088,-34.9126545],[-56.1655066,-34.9126548],[-56.1654406,-34.9126693],[-56.165374,-34.912682],[-56.1653069,-34.9126927],[-56.1652394,-34.9127016],[-56.1651716,-34.9127085],[-56.1651035,-34.9127135],[-56.1650352,-34.9127166],[-56.1649669,-34.9127177],[-56.1648985,-34.9127168],[-56.1648303,-34.9127141],[-56.1647621,-34.9127093],[-56.1646943,-34.9127027],[-56.1646267,-34.9126941],[-56.1645596,-34.9126836],[-56.1644929,-34.9126712],[-56.1644268,-34.9126569],[-56.1643613,-34.9126408],[-56.1642965,-34.9126227],[-56.1642325,-34.9126029],[-56.1641694,-34.9125813],[-56.1641073,-34.9125578]]]}},{"type":"Feature","id":"way/206979465","properties":{"type":"way","id":206979465,"tags":{"building":"yes"},"relations":[],"meta":{}},"geometry":{"type":"Polygon","coordinates":[[[-56.2145251,-34.9078111],[-56.2140206,-34.9076553],[-56.2140101,-34.9076308],[-56.2141762,-34.9072549],[-56.2142086,-34.9072503],[-56.2146995,-34.9074262],[-56.2147182,-34.9074548],[-56.21456,-34.9077979],[-56.2145251,-34.9078111]]]}},{"type":"Feature","id":"way/217037772","properties":{"type":"way","id":217037772,"tags":{"addr:city":"Montevideo","addr:country":"UY","addr:housenumber":"1502","addr:postcode":"11200","addr:street":"Constituyente","amenity":"university","building":"university","name":"Facultad de Ciencias Sociales","operator":"Universidad de la República","phone":"+598 2418 0938","website":"http://www.fcs.edu.uy/","wheelchair":"yes","wikipedia":"es:Facultad de Ciencias Sociales (Universidad de la República)"},"relations":[],"meta":{}},"geometry":{"type":"Polygon","coordinates":[[[-56.1831967,-34.9059559],[-56.1831751,-34.9062013],[-56.1829136,-34.9062101],[-56.1829309,-34.9058992],[-56.1830994,-34.905877],[-56.1831967,-34.9059559]]]}},{"type":"Feature","id":"way/217069226","properties":{"type":"way","id":217069226,"tags":{"addr:city":"Montevideo","addr:country":"UY","addr:housenumber":"1790","addr:postcode":"11200","addr:street":"Avenida 18 de Julio","amenity":"library","building":"yes","email":"bibliotecanacional@bibna.gub.uy","name":"Biblioteca Nacional","name:de":"Nationalbibliothek","name:es":"Biblioteca Nacional","phone":"+598 2400 5385 - 2409 6012","website":"http://bibna.gub.uy/","wheelchair":"yes"},"relations":[],"meta":{}},"geometry":{"type":"Polygon","coordinates":[[[-56.1777702,-34.9027653],[-56.1775317,-34.9031889],[-56.1769826,-34.902981],[-56.1772211,-34.9025573],[-56.1777702,-34.9027653]]]}},{"type":"Feature","id":"way/217069228","properties":{"type":"way","id":217069228,"tags":{"addr:city":"Montevideo","addr:country":"UY","addr:housenumber":"1801","addr:street":"Colonia","amenity":"university","building":"university","name":"Facultad de Derecho - Edificio Anexo","phone":"2409 5190; 2409 6108","wheelchair":"limited"},"relations":[],"meta":{}},"geometry":{"type":"Polygon","coordinates":[[[-56.1779855,-34.9010616],[-56.1777854,-34.9013926],[-56.1777524,-34.9014014],[-56.1775722,-34.9013271],[-56.1775848,-34.9013066],[-56.1776508,-34.901199],[-56.1777857,-34.9009791],[-56.1779855,-34.9010616]]]}},{"type":"Feature","id":"way/218184703","properties":{"type":"way","id":218184703,"tags":{"addr:city":"Montevideo","addr:housename":"Rondeau 1843","addr:housenumber":"1843","addr:postcode":"11800","addr:street":"Avenida General Rondeau","building":"yes","building:levels":"13","name":"Torre de la Bahía","source":"marco","wheelchair":"yes"},"relations":[],"meta":{}},"geometry":{"type":"Polygon","coordinates":[[[-56.1929105,-34.8961423],[-56.1928891,-34.8963746],[-56.1926169,-34.8963577],[-56.1926383,-34.8961254],[-56.1929105,-34.8961423]]]}},{"type":"Feature","id":"way/226021442","properties":{"type":"way","id":226021442,"tags":{"addr:city":"Montevideo","addr:country":"UY","addr:housenumber":"1674","addr:postcode":"11200","addr:street":"Tristán Narvaja","amenity":"university","building":"university","name":"Facultad de Psicología"},"relations":[],"meta":{}},"geometry":{"type":"Polygon","coordinates":[[[-56.1790852,-34.8992623],[-56.1787524,-34.8998161],[-56.1781912,-34.8995829],[-56.1783676,-34.8992761],[-56.1785242,-34.8993315],[-56.1786925,-34.8990438],[-56.1790852,-34.8992623]]]}},{"type":"Feature","id":"way/227705125","properties":{"type":"way","id":227705125,"tags":{"building":"yes"},"relations":[],"meta":{}},"geometry":{"type":"Polygon","coordinates":[[[-56.1642397,-34.8985386],[-56.1641023,-34.8985336],[-56.1640908,-34.8986434],[-56.1639371,-34.8986367],[-56.1639411,-34.8985113],[-56.1638548,-34.8985107],[-56.1638439,-34.8986752],[-56.1637174,-34.8986719],[-56.1636671,-34.8986535],[-56.1636467,-34.8986139],[-56.1636548,-34.8982413],[-56.163591,-34.8982166],[-56.1637481,-34.8979132],[-56.1641364,-34.8980214],[-56.1641952,-34.8980467],[-56.1642328,-34.8980832],[-56.1642678,-34.8981281],[-56.164276,-34.8981852],[-56.1642397,-34.8985386]]]}},{"type":"Feature","id":"way/227705127","properties":{"type":"way","id":227705127,"tags":{"building":"yes"},"relations":[],"meta":{}},"geometry":{"type":"Polygon","coordinates":[[[-56.1639024,-34.8992822],[-56.1638764,-34.8996502],[-56.1623808,-34.8995793],[-56.1624082,-34.8991907],[-56.162544,-34.8991971],[-56.1625228,-34.8994987],[-56.1627297,-34.8995085],[-56.1627499,-34.8992213],[-56.162895,-34.8992281],[-56.1628742,-34.899524],[-56.1630598,-34.8995328],[-56.1630806,-34.8992384],[-56.163239,-34.8992459],[-56.1632181,-34.8995427],[-56.1634141,-34.899552],[-56.1634347,-34.8992589],[-56.1635868,-34.8992661],[-56.1635654,-34.8995695],[-56.1637348,-34.8995776],[-56.1637561,-34.8992752],[-56.1639024,-34.8992822]]]}},{"type":"Feature","id":"way/227705130","properties":{"type":"way","id":227705130,"tags":{"building":"yes"},"relations":[],"meta":{}},"geometry":{"type":"Polygon","coordinates":[[[-56.1617444,-34.8985318],[-56.1617364,-34.8986381],[-56.1619505,-34.8986489],[-56.1619535,-34.8986091],[-56.1620379,-34.8986134],[-56.1620194,-34.8988586],[-56.1619188,-34.8988534],[-56.1619277,-34.8987365],[-56.1617165,-34.8987258],[-56.1617003,-34.89894],[-56.1618896,-34.8989497],[-56.1618781,-34.8991026],[-56.1616847,-34.8990927],[-56.1616533,-34.8995084],[-56.1615491,-34.8995032],[-56.1615575,-34.899391],[-56.1614473,-34.8993854],[-56.1614529,-34.8993118],[-56.1615619,-34.8993173],[-56.1615865,-34.8990718],[-56.1614928,-34.8990673],[-56.161461,-34.8990395],[-56.161461,-34.8990066],[-56.1614712,-34.8989765],[-56.1615009,-34.8989596],[-56.1616078,-34.898965],[-56.1616255,-34.8987301],[-56.1615106,-34.8987242],[-56.1615169,-34.8986411],[-56.1616373,-34.8986473],[-56.1616464,-34.8985268],[-56.1617444,-34.8985318]]]}},{"type":"Feature","id":"way/227705137","properties":{"type":"way","id":227705137,"tags":{"building":"yes"},"relations":[],"meta":{}},"geometry":{"type":"Polygon","coordinates":[[[-56.1639485,-34.8989212],[-56.1639395,-34.8990287],[-56.1641531,-34.8990407],[-56.1641619,-34.8989349],[-56.1642211,-34.8989382],[-56.1642051,-34.8991705],[-56.1638259,-34.8991491],[-56.1638455,-34.8989154],[-56.1639485,-34.8989212]]]}},{"type":"Feature","id":"way/230894211","properties":{"type":"way","id":230894211,"tags":{"addr:city":"Montevideo","addr:country":"UY","addr:housenumber":"1604","addr:street":"Cebollatí","building":"apartments","name":"Piazza Lamaro II"},"relations":[],"meta":{}},"geometry":{"type":"Polygon","coordinates":[[[-56.1800293,-34.9133276],[-56.1799971,-34.9135871],[-56.1797101,-34.9135695],[-56.1797396,-34.9133078],[-56.1800293,-34.9133276]]]}},{"type":"Feature","id":"way/233026933","properties":{"type":"way","id":233026933,"tags":{"building":"yes","name":"Estación Central","operator":"AFE","public_transport":"station","railway":"station","train":"yes"},"relations":[],"meta":{}},"geometry":{"type":"Polygon","coordinates":[[[-56.1950071,-34.893874],[-56.1949757,-34.8942113],[-56.1947661,-34.8941982],[-56.1947975,-34.8938609],[-56.194934,-34.8938694],[-56.1950071,-34.893874]]]}},{"type":"Feature","id":"way/240522427","properties":{"type":"way","id":240522427,"tags":{"building":"commercial","building:levels":"20","height":"75","name":"Aguada Park"},"relations":[],"meta":{}},"geometry":{"type":"Polygon","coordinates":[[[-56.1946836,-34.8914339],[-56.194714,-34.8910915],[-56.195099,-34.8911145],[-56.1950686,-34.8914569],[-56.1946836,-34.8914339]]]}},{"type":"Feature","id":"way/240522428","properties":{"type":"way","id":240522428,"tags":{"amenity":"theatre","building":"yes","name":"Auditorio Mario Benedetti","operator":"ANTEL"},"relations":[],"meta":{}},"geometry":{"type":"Polygon","coordinates":[[[-56.1946251,-34.8920443],[-56.1946753,-34.8920801],[-56.1947121,-34.892124],[-56.194728,-34.8921635],[-56.1947255,-34.8922119],[-56.1946942,-34.8922749],[-56.1946519,-34.8923162],[-56.1946013,-34.8923469],[-56.194541,-34.8923624],[-56.1944739,-34.8923695],[-56.1944051,-34.892361],[-56.1943362,-34.8923413],[-56.1942869,-34.8923102],[-56.1942605,-34.8922768],[-56.1942381,-34.8922285],[-56.1942361,-34.8921885],[-56.194245,-34.8921493],[-56.1942863,-34.8920829],[-56.194362,-34.8920293],[-56.1944326,-34.8920151],[-56.1944997,-34.8920165],[-56.1945651,-34.8920222],[-56.1946251,-34.8920443]]]}},{"type":"Feature","id":"way/240522429","properties":{"type":"way","id":240522429,"tags":{"alt_name":"Edificio de Clientes","building":"yes","building:levels":"6","height":"24","name":"Edificio José Pepe D'Elía","toilets:wheelchair":"yes","wheelchair":"yes"},"relations":[],"meta":{}},"geometry":{"type":"Polygon","coordinates":[[[-56.1942312,-34.8915605],[-56.1950281,-34.891617],[-56.1949507,-34.8916777],[-56.1948526,-34.8917201],[-56.1947441,-34.8917469],[-56.1946133,-34.891754],[-56.1945101,-34.891737],[-56.1944137,-34.8916932],[-56.1943173,-34.8916424],[-56.1942312,-34.8915605]]]}},{"type":"Feature","id":"way/240522430","properties":{"type":"way","id":240522430,"tags":{"building":"yes","building:levels":"2","name":"Museo de las Telecomunicaciones"},"relations":[],"meta":{}},"geometry":{"type":"Polygon","coordinates":[[[-56.194106,-34.8922868],[-56.1941792,-34.8917683],[-56.1944007,-34.8918717],[-56.194106,-34.8922868]]]}},{"type":"Feature","id":"way/240522431","properties":{"type":"way","id":240522431,"tags":{"alt_name":"Torre de las Telecomunicaciones","building":"commercial","building:levels":"35","height":"163","name":"Edificio Joaquín Torres García","wikidata":"Q2298630"},"relations":[],"meta":{}},"geometry":{"type":"Polygon","coordinates":[[[-56.194683,-34.8918212],[-56.1950103,-34.8918396],[-56.1949717,-34.8921764],[-56.1949066,-34.8921647],[-56.1948477,-34.892138],[-56.1947928,-34.8921047],[-56.194746,-34.8920697],[-56.1947094,-34.8920197],[-56.194683,-34.8919646],[-56.1946769,-34.8918946],[-56.194683,-34.8918212]]]}},{"type":"Feature","id":"way/253821313","properties":{"type":"way","id":253821313,"tags":{"building":"yes","name":"Palacio Taranco"},"relations":[],"meta":{}},"geometry":{"type":"Polygon","coordinates":[[[-56.2085746,-34.9069018],[-56.2084458,-34.9071416],[-56.2080855,-34.9070229],[-56.2080584,-34.9067454],[-56.2085746,-34.9069018]]]}},{"type":"Feature","id":"way/253823103","properties":{"type":"way","id":253823103,"tags":{"addr:city":"Montevideo","addr:street":"Plaza Independencia","building":"yes","building:levels":"27","height":"105","name":"Palacio Salvo","tourism":"attraction","wikipedia":"es:Palacio Salvo"},"relations":[],"meta":{}},"geometry":{"type":"Polygon","coordinates":[[[-56.198682,-34.9064919],[-56.1986301,-34.9071105],[-56.1980966,-34.9070803],[-56.1981485,-34.9064618],[-56.198682,-34.9064919]]]}},{"type":"Feature","id":"way/254884554","properties":{"type":"way","id":254884554,"tags":{"addr:city":"Montevideo","addr:housenumber":"3005","addr:street":"Gabriel Pereira","building":"residential","description":"Arquitecto Marcelo de Vita. Propietario original Rizan S. R. L.","name":"Edificio Kohoutek"},"relations":[],"meta":{}},"geometry":{"type":"Polygon","coordinates":[[[-56.1506867,-34.9063709],[-56.1505338,-34.9065106],[-56.1503756,-34.9063819],[-56.1505352,-34.9062433],[-56.1506867,-34.9063709]]]}},{"type":"Feature","id":"way/259197781","properties":{"type":"way","id":259197781,"tags":{"building":"yes"},"relations":[],"meta":{}},"geometry":{"type":"Polygon","coordinates":[[[-56.1963398,-34.8964145],[-56.1963864,-34.8963366],[-56.1967194,-34.8964707],[-56.1966728,-34.8965486],[-56.1963398,-34.8964145]]]}},{"type":"Feature","id":"way/259197782","properties":{"type":"way","id":259197782,"tags":{"building":"warehouse"},"relations":[],"meta":{}},"geometry":{"type":"Polygon","coordinates":[[[-56.19571,-34.8956943],[-56.1958955,-34.8953646],[-56.1969189,-34.895752],[-56.1967334,-34.8960817],[-56.19571,-34.8956943]]]}},{"type":"Feature","id":"way/259197783","properties":{"type":"way","id":259197783,"tags":{"building":"warehouse"},"relations":[],"meta":{}},"geometry":{"type":"Polygon","coordinates":[[[-56.1958493,-34.8928434],[-56.1959908,-34.8925815],[-56.1972201,-34.8930285],[-56.1970785,-34.8932904],[-56.1958493,-34.8928434]]]}},{"type":"Feature","id":"way/259197786","properties":{"type":"way","id":259197786,"tags":{"building":"warehouse"},"relations":[],"meta":{}},"geometry":{"type":"Polygon","coordinates":[[[-56.1956252,-34.896782],[-56.1958397,-34.8963707],[-56.1968025,-34.8967084],[-56.196588,-34.8971198],[-56.1956252,-34.896782]]]}},{"type":"Feature","id":"way/259197787","properties":{"type":"way","id":259197787,"tags":{"building":"warehouse"},"relations":[],"meta":{}},"geometry":{"type":"Polygon","coordinates":[[[-56.1959038,-34.8938665],[-56.1960815,-34.8935416],[-56.1970806,-34.8939091],[-56.1969029,-34.8942341],[-56.1959038,-34.8938665]]]}},{"type":"Feature","id":"way/259197789","properties":{"type":"way","id":259197789,"tags":{"building":"yes"},"relations":[],"meta":{}},"geometry":{"type":"Polygon","coordinates":[[[-56.1972057,-34.8980088],[-56.1973026,-34.8983614],[-56.1970193,-34.8984138],[-56.1969224,-34.8980611],[-56.1972057,-34.8980088]]]}},{"type":"Feature","id":"way/259197790","properties":{"type":"way","id":259197790,"tags":{"building":"warehouse"},"relations":[],"meta":{}},"geometry":{"type":"Polygon","coordinates":[[[-56.1974298,-34.8908616],[-56.1972587,-34.892537],[-56.1959568,-34.8924476],[-56.1961278,-34.8907722],[-56.1974298,-34.8908616]]]}},{"type":"Feature","id":"way/259197791","properties":{"type":"way","id":259197791,"tags":{"building":"warehouse"},"relations":[],"meta":{}},"geometry":{"type":"Polygon","coordinates":[[[-56.1958977,-34.89335],[-56.1960654,-34.8930525],[-56.1971918,-34.8934796],[-56.197024,-34.8937771],[-56.1958977,-34.89335]]]}},{"type":"Feature","id":"way/259197792","properties":{"type":"way","id":259197792,"tags":{"building":"yes"},"relations":[],"meta":{}},"geometry":{"type":"Polygon","coordinates":[[[-56.2027313,-34.9003861],[-56.2025947,-34.9006981],[-56.2010446,-34.9002415],[-56.2011812,-34.8999296],[-56.2027313,-34.9003861]]]}},{"type":"Feature","id":"way/263980601","properties":{"type":"way","id":263980601,"tags":{"building":"transportation"},"relations":[],"meta":{}},"geometry":{"type":"Polygon","coordinates":[[[-56.1966635,-34.9005652],[-56.1966731,-34.9004717],[-56.1980124,-34.9005664],[-56.1980105,-34.9005945],[-56.1982725,-34.9006189],[-56.1982645,-34.9006872],[-56.1966635,-34.9005652]]]}},{"type":"Feature","id":"way/263980602","properties":{"type":"way","id":263980602,"tags":{"building":"roof"},"relations":[],"meta":{}},"geometry":{"type":"Polygon","coordinates":[[[-56.1966731,-34.9004717],[-56.1966836,-34.9003822],[-56.1980181,-34.9004689],[-56.1980124,-34.9005664],[-56.1966731,-34.9004717]]]}},{"type":"Feature","id":"way/268536477","properties":{"type":"way","id":268536477,"tags":{"addr:city":"Montevideo","addr:country":"UY","addr:housenumber":"1020","addr:street":"Río Negro","building":"yes","name":"Multimotors","phone":"+598 2901 0034","shop":"car"},"relations":[],"meta":{}},"geometry":{"type":"Polygon","coordinates":[[[-56.1929152,-34.9116933],[-56.1929503,-34.9117237],[-56.1928879,-34.912281],[-56.192384,-34.9122474],[-56.1924524,-34.9116581],[-56.1929152,-34.9116933]]]}},{"type":"Feature","id":"way/268536478","properties":{"type":"way","id":268536478,"tags":{"building":"apartments"},"relations":[],"meta":{}},"geometry":{"type":"Polygon","coordinates":[[[-56.1896933,-34.9129503],[-56.1897646,-34.9133389],[-56.1895716,-34.9133627],[-56.1895004,-34.9129741],[-56.1896933,-34.9129503]]]}},{"type":"Feature","id":"way/268536479","properties":{"type":"way","id":268536479,"tags":{"building":"apartments"},"relations":[],"meta":{}},"geometry":{"type":"Polygon","coordinates":[[[-56.1955398,-34.9113772],[-56.195519,-34.9116482],[-56.1953642,-34.9116403],[-56.195385,-34.9113692],[-56.1955398,-34.9113772]]]}},{"type":"Feature","id":"way/268536480","properties":{"type":"way","id":268536480,"tags":{"building":"apartments"},"relations":[],"meta":{}},"geometry":{"type":"Polygon","coordinates":[[[-56.1891952,-34.9133935],[-56.1892991,-34.9137771],[-56.1891086,-34.9138118],[-56.1890047,-34.9134282],[-56.1891952,-34.9133935]]]}},{"type":"Feature","id":"way/268536481","properties":{"type":"way","id":268536481,"tags":{"building":"apartments"},"relations":[],"meta":{}},"geometry":{"type":"Polygon","coordinates":[[[-56.1886816,-34.9138215],[-56.1887855,-34.9142051],[-56.1885949,-34.9142398],[-56.1884911,-34.9138562],[-56.1886816,-34.9138215]]]}},{"type":"Feature","id":"way/268536482","properties":{"type":"way","id":268536482,"tags":{"building":"apartments"},"relations":[],"meta":{}},"geometry":{"type":"Polygon","coordinates":[[[-56.1909497,-34.9124564],[-56.1910536,-34.9128401],[-56.1908631,-34.9128747],[-56.1907592,-34.9124911],[-56.1909497,-34.9124564]]]}},{"type":"Feature","id":"way/268536483","properties":{"type":"way","id":268536483,"tags":{"building":"apartments"},"relations":[],"meta":{}},"geometry":{"type":"Polygon","coordinates":[[[-56.1943654,-34.9118],[-56.1943564,-34.9119949],[-56.1942305,-34.911991],[-56.1942396,-34.9117961],[-56.1943654,-34.9118]]]}},{"type":"Feature","id":"way/268536484","properties":{"type":"way","id":268536484,"tags":{"building":"apartments"},"relations":[],"meta":{}},"geometry":{"type":"Polygon","coordinates":[[[-56.1916402,-34.9125175],[-56.1916105,-34.9129097],[-56.1914157,-34.9128998],[-56.1914454,-34.9125076],[-56.1916402,-34.9125175]]]}},{"type":"Feature","id":"way/277026572","properties":{"type":"way","id":277026572,"tags":{"building":"apartments","building:levels":"26","name":"Torre Patria"},"relations":[],"meta":{}},"geometry":{"type":"Polygon","coordinates":[[[-56.1650831,-34.9184055],[-56.1650594,-34.9185848],[-56.1648366,-34.9185651],[-56.1648602,-34.9183858],[-56.1650831,-34.9184055]]]}},{"type":"Feature","id":"way/277030255","properties":{"type":"way","id":277030255,"tags":{"building":"apartments","building:levels":"25","height":"95","name":"Edificio Ciudadela","wikipedia":"es:Edificio Ciudadela"},"relations":[],"meta":{}},"geometry":{"type":"Polygon","coordinates":[[[-56.2010887,-34.9066144],[-56.2010469,-34.9071693],[-56.200909,-34.9071623],[-56.2009508,-34.9066074],[-56.2010887,-34.9066144]]]}},{"type":"Feature","id":"way/277030257","properties":{"type":"way","id":277030257,"tags":{"building":"office","building:levels":"24","height":"78","name":"Palacio Municipal"},"relations":[],"meta":{}},"geometry":{"type":"Polygon","coordinates":[[[-56.1858984,-34.9065332],[-56.1863284,-34.9065734],[-56.1862808,-34.9069161],[-56.1858508,-34.906876],[-56.1858984,-34.9065332]]]}},{"type":"Feature","id":"way/277030258","properties":{"type":"way","id":277030258,"tags":{"building":"office","building:levels":"27","height":"95","name":"Torre del Gaucho"},"relations":[],"meta":{}},"geometry":{"type":"Polygon","coordinates":[[[-56.1842861,-34.9053145],[-56.1842353,-34.9055798],[-56.1840476,-34.9055974],[-56.1840299,-34.9053988],[-56.1841237,-34.905249],[-56.1842861,-34.9053145]]]}},{"type":"Feature","id":"way/277030260","properties":{"type":"way","id":277030260,"tags":{"building":"yes","building:levels":"25","height":"115","name":"Victoria Plaza Torre Norte"},"relations":[],"meta":{}},"geometry":{"type":"Polygon","coordinates":[[[-56.1998011,-34.905159],[-56.1997582,-34.9054576],[-56.1994287,-34.9054257],[-56.1994716,-34.9051271],[-56.1998011,-34.905159]]]}},{"type":"Feature","id":"way/279675288","properties":{"type":"way","id":279675288,"tags":{"addr:city":"Montevideo","addr:country":"UY","addr:housenumber":"2010","addr:street":"Avenida Doctor Américo Ricaldoni","building":"yes","name":"Centro Uruguayo de Imagenología Molecular","short_name":"CUDIM"},"relations":[],"meta":{}},"geometry":{"type":"Polygon","coordinates":[[[-56.1533771,-34.8918063],[-56.1535415,-34.8920369],[-56.1531562,-34.8922346],[-56.1529828,-34.8920025],[-56.1533771,-34.8918063]]]}},{"type":"Feature","id":"way/296269724","properties":{"type":"way","id":296269724,"tags":{"building":"yes","name":"Cabildo","tourism":"museum","wikipedia":"es:Cabildo de Montevideo"},"relations":[],"meta":{}},"geometry":{"type":"Polygon","coordinates":[[[-56.20299,-34.9064441],[-56.2028069,-34.906801],[-56.2023701,-34.9066504],[-56.2025532,-34.9062935],[-56.20299,-34.9064441]]]}},{"type":"Feature","id":"way/301722570","properties":{"type":"way","id":301722570,"tags":{"building":"yes"},"relations":[],"meta":{}},"geometry":{"type":"Polygon","coordinates":[[[-56.1673458,-34.9129419],[-56.1673297,-34.9129584],[-56.1672331,-34.912965],[-56.1672144,-34.9129507],[-56.1672023,-34.9128693],[-56.1672184,-34.9128517],[-56.1673082,-34.9128462],[-56.1673324,-34.9128627],[-56.1673458,-34.9129419]]]}},{"type":"Feature","id":"way/301724752","properties":{"type":"way","id":301724752,"tags":{"building":"yes","name":"Casino Parque Hotel"},"relations":[],"meta":{}},"geometry":{"type":"Polygon","coordinates":[[[-56.1693197,-34.9127286],[-56.1690984,-34.912887],[-56.1689952,-34.9127891],[-56.1690595,-34.9127396],[-56.1688316,-34.9125098],[-56.1689643,-34.9124361],[-56.1689536,-34.9124218],[-56.1690984,-34.9123316],[-56.1693451,-34.9125625],[-56.1692513,-34.9126439],[-56.1693197,-34.9127286]]]}},{"type":"Feature","id":"way/313458587","properties":{"type":"way","id":313458587,"tags":{"building":"residential","source":"Bing"},"relations":[],"meta":{}},"geometry":{"type":"Polygon","coordinates":[[[-56.1527326,-34.9032239],[-56.1528114,-34.9032245],[-56.1528101,-34.9033514],[-56.1527312,-34.9033509],[-56.1527326,-34.9032239]]]}},{"type":"Feature","id":"way/313458588","properties":{"type":"way","id":313458588,"tags":{"building":"residential","source":"Bing"},"relations":[],"meta":{}},"geometry":{"type":"Polygon","coordinates":[[[-56.1536378,-34.9036976],[-56.1536363,-34.903804],[-56.153513,-34.9038029],[-56.1535146,-34.9036964],[-56.1536378,-34.9036976]]]}},{"type":"Feature","id":"way/313458589","properties":{"type":"way","id":313458589,"tags":{"building":"residential","source":"Bing"},"relations":[],"meta":{}},"geometry":{"type":"Polygon","coordinates":[[[-56.1532902,-34.9032532],[-56.1532884,-34.9034228],[-56.1531832,-34.903422],[-56.153185,-34.9032524],[-56.1532902,-34.9032532]]]}},{"type":"Feature","id":"way/313458590","properties":{"type":"way","id":313458590,"tags":{"building":"residential","source":"Bing"},"relations":[],"meta":{}},"geometry":{"type":"Polygon","coordinates":[[[-56.1517462,-34.9036676],[-56.1517447,-34.9038158],[-56.1512521,-34.9038123],[-56.1512537,-34.9036641],[-56.1517462,-34.9036676]]]}},{"type":"Feature","id":"way/313458591","properties":{"type":"way","id":313458591,"tags":{"building":"residential","source":"Bing"},"relations":[],"meta":{}},"geometry":{"type":"Polygon","coordinates":[[[-56.153333,-34.9040192],[-56.1533305,-34.9041971],[-56.1532261,-34.9041961],[-56.1532286,-34.9040182],[-56.153333,-34.9040192]]]}},{"type":"Feature","id":"way/313568465","properties":{"type":"way","id":313568465,"tags":{"building":"residential","source":"Bing"},"relations":[],"meta":{}},"geometry":{"type":"Polygon","coordinates":[[[-56.1784155,-34.9018178],[-56.1782489,-34.9020743],[-56.1781388,-34.9020262],[-56.1781791,-34.9019641],[-56.1782399,-34.9019907],[-56.1782611,-34.901958],[-56.1782004,-34.9019315],[-56.1782467,-34.9018601],[-56.1783004,-34.9018835],[-56.1783281,-34.9018408],[-56.1782745,-34.9018174],[-56.1783054,-34.9017697],[-56.1784155,-34.9018178]]]}},{"type":"Feature","id":"way/313568466","properties":{"type":"way","id":313568466,"tags":{"addr:housename":"Edificio Iscor","building":"residential","building:levels":"9","source":"Bing;survey","source:addr:housename":"survey"},"relations":[],"meta":{}},"geometry":{"type":"Polygon","coordinates":[[[-56.1780732,-34.9017099],[-56.1780049,-34.9018057],[-56.1778307,-34.9017221],[-56.177899,-34.9016263],[-56.1780732,-34.9017099]]]}},{"type":"Feature","id":"way/313568468","properties":{"type":"way","id":313568468,"tags":{"building":"residential","source":"Bing"},"relations":[],"meta":{}},"geometry":{"type":"Polygon","coordinates":[[[-56.1525587,-34.9041441],[-56.152555,-34.9042113],[-56.152491,-34.9042088],[-56.1524948,-34.9041416],[-56.1525587,-34.9041441]]]}},{"type":"Feature","id":"way/313568469","properties":{"type":"way","id":313568469,"tags":{"building":"residential","source":"Bing"},"relations":[],"meta":{}},"geometry":{"type":"Polygon","coordinates":[[[-56.1772693,-34.9008138],[-56.1771933,-34.9009233],[-56.1770895,-34.9008748],[-56.1771655,-34.9007653],[-56.1772693,-34.9008138]]]}},{"type":"Feature","id":"way/313568470","properties":{"type":"way","id":313568470,"tags":{"building":"residential","source":"Bing"},"relations":[],"meta":{}},"geometry":{"type":"Polygon","coordinates":[[[-56.1782849,-34.9017579],[-56.1780947,-34.9020479],[-56.1779719,-34.9019937],[-56.1781621,-34.9017038],[-56.1782849,-34.9017579]]]}},{"type":"Feature","id":"way/313568471","properties":{"type":"way","id":313568471,"tags":{"building":"residential","source":"Bing"},"relations":[],"meta":{}},"geometry":{"type":"Polygon","coordinates":[[[-56.1785522,-34.9018272],[-56.1783332,-34.9021681],[-56.1782306,-34.9021237],[-56.1784496,-34.9017828],[-56.1785522,-34.9018272]]]}},{"type":"Feature","id":"way/313568472","properties":{"type":"way","id":313568472,"tags":{"building":"residential","source":"Bing"},"relations":[],"meta":{}},"geometry":{"type":"Polygon","coordinates":[[[-56.152235,-34.9032349],[-56.1522287,-34.9033982],[-56.1521281,-34.9033956],[-56.1521344,-34.9032323],[-56.152235,-34.9032349]]]}},{"type":"Feature","id":"way/313568473","properties":{"type":"way","id":313568473,"tags":{"building":"residential","source":"Bing"},"relations":[],"meta":{}},"geometry":{"type":"Polygon","coordinates":[[[-56.1776015,-34.9005716],[-56.1775332,-34.9006754],[-56.1774406,-34.9006343],[-56.1775089,-34.9005306],[-56.1776015,-34.9005716]]]}},{"type":"Feature","id":"way/313568474","properties":{"type":"way","id":313568474,"tags":{"building":"residential","source":"Bing"},"relations":[],"meta":{}},"geometry":{"type":"Polygon","coordinates":[[[-56.178968,-34.9020285],[-56.1788889,-34.9021485],[-56.1787722,-34.9020967],[-56.1788513,-34.9019767],[-56.178968,-34.9020285]]]}},{"type":"Feature","id":"way/313568475","properties":{"type":"way","id":313568475,"tags":{"building":"residential","source":"Bing"},"relations":[],"meta":{}},"geometry":{"type":"Polygon","coordinates":[[[-56.1774823,-34.9011783],[-56.1774093,-34.9012559],[-56.1772646,-34.9011644],[-56.1773375,-34.9010868],[-56.1774823,-34.9011783]]]}},{"type":"Feature","id":"way/313568476","properties":{"type":"way","id":313568476,"tags":{"building":"residential","source":"Bing"},"relations":[],"meta":{}},"geometry":{"type":"Polygon","coordinates":[[[-56.1772257,-34.900955],[-56.1771601,-34.9010494],[-56.1769908,-34.9009703],[-56.1770563,-34.9008759],[-56.1772257,-34.900955]]]}},{"type":"Feature","id":"way/313568477","properties":{"type":"way","id":313568477,"tags":{"building":"residential","source":"Bing"},"relations":[],"meta":{}},"geometry":{"type":"Polygon","coordinates":[[[-56.1781148,-34.9007989],[-56.1780402,-34.9009122],[-56.1779195,-34.9008587],[-56.1779941,-34.9007455],[-56.1781148,-34.9007989]]]}},{"type":"Feature","id":"way/313568478","properties":{"type":"way","id":313568478,"tags":{"building":"residential","source":"Bing"},"relations":[],"meta":{}},"geometry":{"type":"Polygon","coordinates":[[[-56.1774512,-34.9007019],[-56.1773839,-34.9008222],[-56.1771813,-34.9007459],[-56.1772487,-34.9006256],[-56.1774512,-34.9007019]]]}},{"type":"Feature","id":"way/313568479","properties":{"type":"way","id":313568479,"tags":{"building":"residential","source":"Bing"},"relations":[],"meta":{}},"geometry":{"type":"Polygon","coordinates":[[[-56.1784209,-34.9024275],[-56.1782933,-34.9026279],[-56.1781892,-34.9025834],[-56.1783169,-34.902383],[-56.1784209,-34.9024275]]]}},{"type":"Feature","id":"way/313568480","properties":{"type":"way","id":313568480,"tags":{"building":"residential","source":"Bing"},"relations":[],"meta":{}},"geometry":{"type":"Polygon","coordinates":[[[-56.1786739,-34.9020646],[-56.1786458,-34.9021082],[-56.1785998,-34.9020883],[-56.1786279,-34.9020447],[-56.1786739,-34.9020646]]]}},{"type":"Feature","id":"way/313568481","properties":{"type":"way","id":313568481,"tags":{"building":"residential","source":"Bing"},"relations":[],"meta":{}},"geometry":{"type":"Polygon","coordinates":[[[-56.1524286,-34.9034363],[-56.1524977,-34.9034385],[-56.1524909,-34.9035866],[-56.1524218,-34.9035844],[-56.1524286,-34.9034363]]]}},{"type":"Feature","id":"way/313568482","properties":{"type":"way","id":313568482,"tags":{"building":"residential","source":"Bing"},"relations":[],"meta":{}},"geometry":{"type":"Polygon","coordinates":[[[-56.1778311,-34.902291],[-56.177734,-34.9024372],[-56.1776278,-34.9023897],[-56.1777249,-34.9022435],[-56.1778311,-34.902291]]]}},{"type":"Feature","id":"way/313568483","properties":{"type":"way","id":313568483,"tags":{"building":"residential","source":"Bing"},"relations":[],"meta":{}},"geometry":{"type":"Polygon","coordinates":[[[-56.1780402,-34.9009122],[-56.1780172,-34.9009471],[-56.1778965,-34.9008937],[-56.1779195,-34.9008587],[-56.1780402,-34.9009122]]]}},{"type":"Feature","id":"way/313568484","properties":{"type":"way","id":313568484,"tags":{"building":"residential","source":"Bing"},"relations":[],"meta":{}},"geometry":{"type":"Polygon","coordinates":[[[-56.1785998,-34.9020883],[-56.1785595,-34.9020709],[-56.1785875,-34.9020273],[-56.1786279,-34.9020447],[-56.1785998,-34.9020883]]]}},{"type":"Feature","id":"way/313568485","properties":{"type":"way","id":313568485,"tags":{"building":"residential","source":"Bing"},"relations":[],"meta":{}},"geometry":{"type":"Polygon","coordinates":[[[-56.1525713,-34.9040872],[-56.1525706,-34.9041346],[-56.1524819,-34.9041337],[-56.1524826,-34.9040863],[-56.1525713,-34.9040872]]]}},{"type":"Feature","id":"way/313568486","properties":{"type":"way","id":313568486,"tags":{"building":"residential","source":"Bing"},"relations":[],"meta":{}},"geometry":{"type":"Polygon","coordinates":[[[-56.1525186,-34.9033139],[-56.1525157,-34.9033768],[-56.1524656,-34.9033753],[-56.1524685,-34.9033124],[-56.1525186,-34.9033139]]]}},{"type":"Feature","id":"way/313568487","properties":{"type":"way","id":313568487,"tags":{"building":"residential","source":"Bing"},"relations":[],"meta":{}},"geometry":{"type":"Polygon","coordinates":[[[-56.1776642,-34.9009732],[-56.1774947,-34.901141],[-56.1773638,-34.9010522],[-56.1775334,-34.9008843],[-56.1776642,-34.9009732]]]}},{"type":"Feature","id":"way/313568488","properties":{"type":"way","id":313568488,"tags":{"building":"residential","source":"Bing"},"relations":[],"meta":{}},"geometry":{"type":"Polygon","coordinates":[[[-56.1779024,-34.9007048],[-56.1778048,-34.900853],[-56.1777674,-34.9009098],[-56.1776586,-34.9008617],[-56.1777936,-34.9006567],[-56.1779024,-34.9007048]]]}},{"type":"Feature","id":"way/313568489","properties":{"type":"way","id":313568489,"tags":{"building":"residential","source":"Bing"},"relations":[],"meta":{}},"geometry":{"type":"Polygon","coordinates":[[[-56.178348,-34.9022426],[-56.1781451,-34.9025612],[-56.1780565,-34.9025232],[-56.178123,-34.9024187],[-56.1782593,-34.9022047],[-56.178348,-34.9022426]]]}},{"type":"Feature","id":"way/313568490","properties":{"type":"way","id":313568490,"tags":{"building":"residential","source":"Bing"},"relations":[],"meta":{}},"geometry":{"type":"Polygon","coordinates":[[[-56.1776508,-34.901199],[-56.1775848,-34.9013066],[-56.1774632,-34.9012563],[-56.1775291,-34.9011488],[-56.1776508,-34.901199]]]}},{"type":"Feature","id":"way/313568491","properties":{"type":"way","id":313568491,"tags":{"building":"residential","source":"Bing"},"relations":[],"meta":{}},"geometry":{"type":"Polygon","coordinates":[[[-56.1780049,-34.9018057],[-56.1778449,-34.9020296],[-56.1777765,-34.9019967],[-56.1776707,-34.901946],[-56.1778307,-34.9017221],[-56.1780049,-34.9018057]]]}},{"type":"Feature","id":"way/313568492","properties":{"type":"way","id":313568492,"tags":{"building":"residential","source":"Bing"},"relations":[],"meta":{}},"geometry":{"type":"Polygon","coordinates":[[[-56.1788261,-34.9022557],[-56.1787644,-34.9023518],[-56.1785826,-34.9022732],[-56.1786138,-34.9022247],[-56.1786443,-34.9021771],[-56.1788261,-34.9022557]]]}},{"type":"Feature","id":"way/313568493","properties":{"type":"way","id":313568493,"tags":{"building":"residential","source":"Bing"},"relations":[],"meta":{}},"geometry":{"type":"Polygon","coordinates":[[[-56.1780411,-34.900971],[-56.1779855,-34.9010616],[-56.1777857,-34.9009791],[-56.1777667,-34.9009713],[-56.1778223,-34.9008807],[-56.1780411,-34.900971]]]}},{"type":"Feature","id":"way/313568494","properties":{"type":"way","id":313568494,"tags":{"building":"residential","source":"Bing"},"relations":[],"meta":{}},"geometry":{"type":"Polygon","coordinates":[[[-56.178893,-34.9021503],[-56.1788363,-34.9022363],[-56.1787154,-34.9021827],[-56.1787722,-34.9020967],[-56.1788889,-34.9021485],[-56.178893,-34.9021503]]]}},{"type":"Feature","id":"way/313568495","properties":{"type":"way","id":313568495,"tags":{"building":"residential","source":"Bing"},"relations":[],"meta":{}},"geometry":{"type":"Polygon","coordinates":[[[-56.1525215,-34.9032504],[-56.1525186,-34.9033139],[-56.1524685,-34.9033124],[-56.1524344,-34.9033113],[-56.1524373,-34.9032478],[-56.1525215,-34.9032504]]]}},{"type":"Feature","id":"way/313568496","properties":{"type":"way","id":313568496,"tags":{"building":"residential","source":"Bing"},"relations":[],"meta":{}},"geometry":{"type":"Polygon","coordinates":[[[-56.1777765,-34.9019967],[-56.1777197,-34.9020762],[-56.1775158,-34.9023613],[-56.1774099,-34.9023104],[-56.1776707,-34.901946],[-56.1777765,-34.9019967]]]}},{"type":"Feature","id":"way/313568497","properties":{"type":"way","id":313568497,"tags":{"building":"residential","source":"Bing"},"relations":[],"meta":{}},"geometry":{"type":"Polygon","coordinates":[[[-56.1779574,-34.9020837],[-56.1779005,-34.9021632],[-56.1777197,-34.9020762],[-56.1777765,-34.9019967],[-56.1778449,-34.9020296],[-56.1779574,-34.9020837]]]}},{"type":"Feature","id":"way/313568498","properties":{"type":"way","id":313568498,"tags":{"building":"residential","source":"Bing"},"relations":[],"meta":{}},"geometry":{"type":"Polygon","coordinates":[[[-56.1777936,-34.9006567],[-56.1776586,-34.9008617],[-56.1776311,-34.9009034],[-56.1775398,-34.900863],[-56.1777023,-34.9006162],[-56.1777936,-34.9006567]]]}},{"type":"Feature","id":"way/313568499","properties":{"type":"way","id":313568499,"tags":{"building":"residential","source":"Bing"},"relations":[],"meta":{}},"geometry":{"type":"Polygon","coordinates":[[[-56.1777023,-34.9006162],[-56.1775398,-34.900863],[-56.1774391,-34.9008184],[-56.1775332,-34.9006754],[-56.1776015,-34.9005716],[-56.1777023,-34.9006162]]]}},{"type":"Feature","id":"way/313568500","properties":{"type":"way","id":313568500,"tags":{"building":"residential","source":"Bing"},"relations":[],"meta":{}},"geometry":{"type":"Polygon","coordinates":[[[-56.1525726,-34.9040035],[-56.1525713,-34.9040872],[-56.1524826,-34.9040863],[-56.1524447,-34.9040859],[-56.152446,-34.9040022],[-56.1525726,-34.9040035]]]}},{"type":"Feature","id":"way/313568501","properties":{"type":"way","id":313568501,"tags":{"building":"residential","source":"Bing"},"relations":[],"meta":{}},"geometry":{"type":"Polygon","coordinates":[[[-56.1779941,-34.9007455],[-56.1779195,-34.9008587],[-56.1778965,-34.9008937],[-56.1778048,-34.900853],[-56.1779024,-34.9007048],[-56.1779941,-34.9007455]]]}},{"type":"Feature","id":"way/313568502","properties":{"type":"way","id":313568502,"tags":{"building":"residential","source":"Bing"},"relations":[],"meta":{}},"geometry":{"type":"Polygon","coordinates":[[[-56.1524295,-34.9034179],[-56.1524286,-34.9034363],[-56.1524218,-34.9035844],[-56.1523238,-34.9035814],[-56.1523315,-34.9034149],[-56.1524295,-34.9034179]]]}},{"type":"Feature","id":"way/313568503","properties":{"type":"way","id":313568503,"tags":{"building":"residential","source":"Bing"},"relations":[],"meta":{}},"geometry":{"type":"Polygon","coordinates":[[[-56.152555,-34.9042113],[-56.1525513,-34.9042767],[-56.1524685,-34.9042736],[-56.1524721,-34.9042081],[-56.152491,-34.9042088],[-56.152555,-34.9042113]]]}},{"type":"Feature","id":"way/313568504","properties":{"type":"way","id":313568504,"tags":{"building":"residential","source":"Bing"},"relations":[],"meta":{}},"geometry":{"type":"Polygon","coordinates":[[[-56.1787241,-34.9023864],[-56.1786523,-34.902499],[-56.1785387,-34.9024504],[-56.1785249,-34.9024444],[-56.1785967,-34.9023318],[-56.1787241,-34.9023864]]]}},{"type":"Feature","id":"way/313568505","properties":{"type":"way","id":313568505,"tags":{"building":"residential","source":"Bing"},"relations":[],"meta":{}},"geometry":{"type":"Polygon","coordinates":[[[-56.1785387,-34.9024504],[-56.178429,-34.9026228],[-56.1783544,-34.9025908],[-56.1784642,-34.9024184],[-56.1785249,-34.9024444],[-56.1785387,-34.9024504]]]}},{"type":"Feature","id":"way/313568506","properties":{"type":"way","id":313568506,"tags":{"building":"residential","source":"Bing"},"relations":[],"meta":{}},"geometry":{"type":"Polygon","coordinates":[[[-56.1524373,-34.9032478],[-56.1524344,-34.9033113],[-56.1524315,-34.9033743],[-56.1524295,-34.9034179],[-56.1523315,-34.9034149],[-56.1523393,-34.9032448],[-56.1524373,-34.9032478]]]}},{"type":"Feature","id":"way/313568507","properties":{"type":"way","id":313568507,"tags":{"building":"residential","source":"Bing"},"relations":[],"meta":{}},"geometry":{"type":"Polygon","coordinates":[[[-56.1786613,-34.9025029],[-56.1785165,-34.9027302],[-56.1783939,-34.9026777],[-56.178429,-34.9026228],[-56.1785387,-34.9024504],[-56.1786523,-34.902499],[-56.1786613,-34.9025029]]]}},{"type":"Feature","id":"way/313568508","properties":{"type":"way","id":313568508,"tags":{"building":"residential","source":"Bing"},"relations":[],"meta":{}},"geometry":{"type":"Polygon","coordinates":[[[-56.1781343,-34.9022932],[-56.1780691,-34.9023956],[-56.1779951,-34.9025118],[-56.1778822,-34.9024634],[-56.1780214,-34.9022448],[-56.1780875,-34.9022732],[-56.1781343,-34.9022932]]]}},{"type":"Feature","id":"way/313568509","properties":{"type":"way","id":313568509,"tags":{"building":"residential","source":"Bing"},"relations":[],"meta":{}},"geometry":{"type":"Polygon","coordinates":[[[-56.1782593,-34.9022047],[-56.178123,-34.9024187],[-56.1780691,-34.9023956],[-56.1781343,-34.9022932],[-56.1780875,-34.9022732],[-56.1781586,-34.9021615],[-56.1782593,-34.9022047]]]}},{"type":"Feature","id":"way/313568510","properties":{"type":"way","id":313568510,"tags":{"building":"residential","source":"Bing"},"relations":[],"meta":{}},"geometry":{"type":"Polygon","coordinates":[[[-56.1525157,-34.9033768],[-56.1525128,-34.9034389],[-56.1524977,-34.9034385],[-56.1524286,-34.9034363],[-56.1524295,-34.9034179],[-56.1524315,-34.9033743],[-56.1524656,-34.9033753],[-56.1525157,-34.9033768]]]}},{"type":"Feature","id":"way/313568511","properties":{"type":"way","id":313568511,"tags":{"building":"residential","source":"Bing"},"relations":[],"meta":{}},"geometry":{"type":"Polygon","coordinates":[[[-56.1787824,-34.9019838],[-56.1787182,-34.9020837],[-56.1786739,-34.9020646],[-56.1786279,-34.9020447],[-56.1785875,-34.9020273],[-56.1785368,-34.9020054],[-56.178601,-34.9019054],[-56.1787824,-34.9019838]]]}},{"type":"Feature","id":"way/313568512","properties":{"type":"way","id":313568512,"tags":{"building":"residential","source":"Bing"},"relations":[],"meta":{}},"geometry":{"type":"Polygon","coordinates":[[[-56.1785522,-34.9018272],[-56.1786298,-34.9018607],[-56.178601,-34.9019054],[-56.1785368,-34.9020054],[-56.1785088,-34.902049],[-56.1784433,-34.902151],[-56.1784108,-34.9022016],[-56.1783332,-34.9021681],[-56.1785522,-34.9018272]]]}},{"type":"Feature","id":"way/313568513","properties":{"type":"way","id":313568513,"tags":{"building":"residential","source":"Bing"},"relations":[],"meta":{}},"geometry":{"type":"Polygon","coordinates":[[[-56.1786793,-34.9021227],[-56.1786443,-34.9021771],[-56.1786138,-34.9022247],[-56.1784433,-34.902151],[-56.1785088,-34.902049],[-56.1785595,-34.9020709],[-56.1785998,-34.9020883],[-56.1786458,-34.9021082],[-56.1786793,-34.9021227]]]}},{"type":"Feature","id":"way/313574837","properties":{"type":"way","id":313574837,"tags":{"building":"residential","source":"Bing"},"relations":[],"meta":{}},"geometry":{"type":"Polygon","coordinates":[[[-56.1775923,-34.9015357],[-56.1775322,-34.9016307],[-56.177475,-34.9016064],[-56.1775351,-34.9015114],[-56.1775923,-34.9015357]]]}},{"type":"Feature","id":"way/313574838","properties":{"type":"way","id":313574838,"tags":{"building":"residential","source":"Bing"},"relations":[],"meta":{}},"geometry":{"type":"Polygon","coordinates":[[[-56.1769837,-34.9019771],[-56.1768728,-34.9021538],[-56.1767395,-34.9020975],[-56.1768504,-34.9019208],[-56.1769837,-34.9019771]]]}},{"type":"Feature","id":"way/313574839","properties":{"type":"way","id":313574839,"tags":{"building":"residential","source":"Bing"},"relations":[],"meta":{}},"geometry":{"type":"Polygon","coordinates":[[[-56.1767702,-34.9016141],[-56.176704,-34.9017195],[-56.1765994,-34.9016754],[-56.1766656,-34.9015699],[-56.1767702,-34.9016141]]]}},{"type":"Feature","id":"way/313574840","properties":{"type":"way","id":313574840,"tags":{"building":"residential","source":"Bing"},"relations":[],"meta":{}},"geometry":{"type":"Polygon","coordinates":[[[-56.1774501,-34.901979],[-56.1772579,-34.902283],[-56.1771685,-34.902245],[-56.1773608,-34.901941],[-56.1774501,-34.901979]]]}},{"type":"Feature","id":"way/313574841","properties":{"type":"way","id":313574841,"tags":{"building":"residential","source":"Bing"},"relations":[],"meta":{}},"geometry":{"type":"Polygon","coordinates":[[[-56.1772781,-34.9013655],[-56.1770724,-34.9017114],[-56.1768639,-34.901628],[-56.1770696,-34.9012821],[-56.1772781,-34.9013655]]]}},{"type":"Feature","id":"way/313574842","properties":{"type":"way","id":313574842,"tags":{"building":"residential","source":"Bing"},"relations":[],"meta":{}},"geometry":{"type":"Polygon","coordinates":[[[-56.1769143,-34.9017812],[-56.1767242,-34.902084],[-56.1765566,-34.9020132],[-56.1767467,-34.9017104],[-56.1769143,-34.9017812]]]}},{"type":"Feature","id":"way/313574843","properties":{"type":"way","id":313574843,"tags":{"building":"residential","source":"Bing"},"relations":[],"meta":{}},"geometry":{"type":"Polygon","coordinates":[[[-56.1770771,-34.9012695],[-56.1770696,-34.9012821],[-56.1768639,-34.901628],[-56.1766564,-34.901545],[-56.1768696,-34.9011866],[-56.1770771,-34.9012695]]]}},{"type":"Feature","id":"way/313574844","properties":{"type":"way","id":313574844,"tags":{"building":"residential","source":"Bing"},"relations":[],"meta":{}},"geometry":{"type":"Polygon","coordinates":[[[-56.1775459,-34.9017569],[-56.1774594,-34.9018939],[-56.1771268,-34.9017524],[-56.1771697,-34.9016846],[-56.1773352,-34.901755],[-56.1773789,-34.9016859],[-56.1775459,-34.9017569]]]}},{"type":"Feature","id":"way/313574845","properties":{"type":"way","id":313574845,"tags":{"building":"residential","source":"Bing"},"relations":[],"meta":{}},"geometry":{"type":"Polygon","coordinates":[[[-56.1775351,-34.9015114],[-56.177475,-34.9016064],[-56.177468,-34.9016174],[-56.1774319,-34.9016021],[-56.1772859,-34.90154],[-56.1772438,-34.9016066],[-56.1772015,-34.9015886],[-56.1773106,-34.9014159],[-56.1775351,-34.9015114]]]}},{"type":"Feature","id":"way/313574846","properties":{"type":"way","id":313574846,"tags":{"building":"residential","source":"Bing"},"relations":[],"meta":{}},"geometry":{"type":"Polygon","coordinates":[[[-56.1766781,-34.9017659],[-56.1766418,-34.9018237],[-56.1766139,-34.9018119],[-56.1765426,-34.9019254],[-56.1765705,-34.9019372],[-56.1765408,-34.9019845],[-56.1764378,-34.901941],[-56.1765751,-34.9017224],[-56.1766781,-34.9017659]]]}},{"type":"Feature","id":"way/313574847","properties":{"type":"way","id":313574847,"tags":{"building":"residential","source":"Bing"},"relations":[],"meta":{}},"geometry":{"type":"Polygon","coordinates":[[[-56.1774319,-34.9016021],[-56.1773789,-34.9016859],[-56.1773352,-34.901755],[-56.1771697,-34.9016846],[-56.1771469,-34.9016749],[-56.1772015,-34.9015886],[-56.1772438,-34.9016066],[-56.1772859,-34.90154],[-56.1774319,-34.9016021]]]}},{"type":"Feature","id":"way/313574848","properties":{"type":"way","id":313574848,"tags":{"building":"residential","source":"Bing"},"relations":[],"meta":{}},"geometry":{"type":"Polygon","coordinates":[[[-56.1772432,-34.9019406],[-56.1770832,-34.9021954],[-56.1770072,-34.9021633],[-56.1770664,-34.902069],[-56.1770998,-34.9020831],[-56.1771449,-34.9020113],[-56.1771115,-34.9019972],[-56.1771672,-34.9019085],[-56.1772432,-34.9019406]]]}},{"type":"Feature","id":"way/313574849","properties":{"type":"way","id":313574849,"tags":{"building":"residential","source":"Bing"},"relations":[],"meta":{}},"geometry":{"type":"Polygon","coordinates":[[[-56.1775923,-34.9015357],[-56.1776834,-34.9015745],[-56.1775634,-34.9017643],[-56.1775459,-34.9017569],[-56.1773789,-34.9016859],[-56.1774319,-34.9016021],[-56.177468,-34.9016174],[-56.177475,-34.9016064],[-56.1775322,-34.9016307],[-56.1775923,-34.9015357]]]}},{"type":"Feature","id":"way/313579675","properties":{"type":"way","id":313579675,"tags":{"building":"residential","source":"Bing"},"relations":[],"meta":{}},"geometry":{"type":"Polygon","coordinates":[[[-56.1793095,-34.9012025],[-56.1792658,-34.9012754],[-56.1792295,-34.9012608],[-56.1791977,-34.9013138],[-56.179234,-34.9013285],[-56.1792086,-34.9013708],[-56.1791878,-34.9014055],[-56.1791639,-34.9013959],[-56.1791529,-34.9014142],[-56.1790805,-34.901385],[-56.1790946,-34.9013616],[-56.1790864,-34.9013583],[-56.1791046,-34.901328],[-56.179125,-34.9013363],[-56.1791771,-34.9012493],[-56.1791567,-34.9012411],[-56.1792052,-34.9011603],[-56.1793095,-34.9012025]]]}},{"type":"Feature","id":"way/313579676","properties":{"type":"way","id":313579676,"tags":{"building":"residential","source":"Bing"},"relations":[],"meta":{}},"geometry":{"type":"Polygon","coordinates":[[[-56.1793759,-34.9013183],[-56.1793179,-34.9014149],[-56.1792257,-34.9013777],[-56.1792836,-34.9012811],[-56.1793759,-34.9013183]]]}},{"type":"Feature","id":"way/313579677","properties":{"type":"way","id":313579677,"tags":{"building":"residential","source":"Bing"},"relations":[],"meta":{}},"geometry":{"type":"Polygon","coordinates":[[[-56.1790046,-34.9018025],[-56.1790167,-34.9017822],[-56.1790834,-34.9016711],[-56.1791871,-34.901713],[-56.1791083,-34.9018444],[-56.1790046,-34.9018025]]]}},{"type":"Feature","id":"way/313579678","properties":{"type":"way","id":313579678,"tags":{"building":"residential","source":"Bing"},"relations":[],"meta":{}},"geometry":{"type":"Polygon","coordinates":[[[-56.1786635,-34.9017908],[-56.1786565,-34.9018025],[-56.1784325,-34.9017121],[-56.1784912,-34.9016142],[-56.1787152,-34.9017046],[-56.1786635,-34.9017908]]]}},{"type":"Feature","id":"way/313579679","properties":{"type":"way","id":313579679,"tags":{"building":"residential","source":"Bing"},"relations":[],"meta":{}},"geometry":{"type":"Polygon","coordinates":[[[-56.1788616,-34.9014606],[-56.178794,-34.9015733],[-56.1787152,-34.9017046],[-56.1784912,-34.9016142],[-56.1786376,-34.9013702],[-56.1788616,-34.9014606]]]}},{"type":"Feature","id":"way/313579680","properties":{"type":"way","id":313579680,"tags":{"building":"residential","source":"Bing"},"relations":[],"meta":{}},"geometry":{"type":"Polygon","coordinates":[[[-56.1791263,-34.9018516],[-56.1790655,-34.901953],[-56.1789437,-34.9019039],[-56.1790046,-34.9018025],[-56.1791083,-34.9018444],[-56.1791263,-34.9018516]]]}},{"type":"Feature","id":"way/313579681","properties":{"type":"way","id":313579681,"tags":{"building":"residential","source":"Bing"},"relations":[],"meta":{}},"geometry":{"type":"Polygon","coordinates":[[[-56.1790167,-34.9017822],[-56.1790046,-34.9018025],[-56.1789437,-34.9019039],[-56.1787802,-34.9018379],[-56.1788333,-34.9017494],[-56.1788532,-34.9017163],[-56.1790167,-34.9017822]]]}},{"type":"Feature","id":"way/313579682","properties":{"type":"way","id":313579682,"tags":{"building":"residential","source":"Bing"},"relations":[],"meta":{}},"geometry":{"type":"Polygon","coordinates":[[[-56.1793052,-34.9015775],[-56.1792168,-34.901725],[-56.1791871,-34.901713],[-56.1790834,-34.9016711],[-56.1789717,-34.9016261],[-56.1790602,-34.9014786],[-56.1791068,-34.9014974],[-56.1793052,-34.9015775]]]}},{"type":"Feature","id":"way/313579683","properties":{"type":"way","id":313579683,"tags":{"building":"residential","source":"Bing"},"relations":[],"meta":{}},"geometry":{"type":"Polygon","coordinates":[[[-56.1793429,-34.901425],[-56.1793051,-34.9014882],[-56.1791708,-34.901434],[-56.1791878,-34.9014055],[-56.1792086,-34.9013708],[-56.1792257,-34.9013777],[-56.1793179,-34.9014149],[-56.1793429,-34.901425]]]}},{"type":"Feature","id":"way/313579684","properties":{"type":"way","id":313579684,"tags":{"building":"residential","source":"Bing"},"relations":[],"meta":{}},"geometry":{"type":"Polygon","coordinates":[[[-56.1793595,-34.9015101],[-56.1793164,-34.9015819],[-56.1793052,-34.9015775],[-56.1791068,-34.9014974],[-56.1791499,-34.9014255],[-56.1791708,-34.901434],[-56.1793051,-34.9014882],[-56.1793595,-34.9015101]]]}},{"type":"Feature","id":"way/313579685","properties":{"type":"way","id":313579685,"tags":{"building":"residential","source":"Bing"},"relations":[],"meta":{}},"geometry":{"type":"Polygon","coordinates":[[[-56.178794,-34.9015733],[-56.1789101,-34.9016202],[-56.1788587,-34.9017059],[-56.1788184,-34.9016896],[-56.1787924,-34.9017329],[-56.1788333,-34.9017494],[-56.1787802,-34.9018379],[-56.1786635,-34.9017908],[-56.1787152,-34.9017046],[-56.178794,-34.9015733]]]}},{"type":"Feature","id":"way/315445428","properties":{"type":"way","id":315445428,"tags":{"amenity":"place_of_worship","building":"church","denomination":"catholic","name":"San Pancracio","religion":"christian"},"relations":[],"meta":{}},"geometry":{"type":"Polygon","coordinates":[[[-56.177628,-34.8911818],[-56.1776157,-34.8913217],[-56.1770819,-34.8912901],[-56.1770942,-34.8911502],[-56.177628,-34.8911818]]]}},{"type":"Feature","id":"way/316647520","properties":{"type":"way","id":316647520,"tags":{"building":"yes","emergency":"no","name":"Fundación Dr. Pérez Scremini","source":"local knowledge"},"relations":[],"meta":{}},"geometry":{"type":"Polygon","coordinates":[[[-56.1641661,-34.8995511],[-56.1640496,-34.8995474],[-56.1640521,-34.899462],[-56.1640002,-34.8994607],[-56.1640062,-34.899302],[-56.1641893,-34.8993066],[-56.1641842,-34.8994402],[-56.1642222,-34.8994411],[-56.1642211,-34.8994728],[-56.1641514,-34.899471],[-56.1641507,-34.8994899],[-56.1641684,-34.8994903],[-56.1641661,-34.8995511]]]}},{"type":"Feature","id":"way/316650679","properties":{"type":"way","id":316650679,"tags":{"building":"roof","layer":"1"},"relations":[],"meta":{}},"geometry":{"type":"Polygon","coordinates":[[[-56.1642348,-34.8987772],[-56.1642221,-34.8989227],[-56.1641835,-34.8989204],[-56.1641962,-34.8987749],[-56.1642348,-34.8987772]]]}},{"type":"Feature","id":"way/317966077","properties":{"type":"way","id":317966077,"tags":{"building":"retail","building:levels":"2","name":"Mercado del Cordon","shop":"yes"},"relations":[],"meta":{}},"geometry":{"type":"Polygon","coordinates":[[[-56.176379,-34.8988066],[-56.1758731,-34.8992578],[-56.1756809,-34.8991219],[-56.176242,-34.8986907],[-56.176379,-34.8988066]]]}},{"type":"Feature","id":"way/320373742","properties":{"type":"way","id":320373742,"tags":{"building":"yes"},"relations":[],"meta":{}},"geometry":{"type":"Polygon","coordinates":[[[-56.1649039,-34.9128823],[-56.1649059,-34.9129879],[-56.1648768,-34.9129883],[-56.1648777,-34.9130395],[-56.1648319,-34.9130401],[-56.1648291,-34.9128832],[-56.1649039,-34.9128823]]]}},{"type":"Feature","id":"way/320373745","properties":{"type":"way","id":320373745,"tags":{"building":"yes"},"relations":[],"meta":{}},"geometry":{"type":"Polygon","coordinates":[[[-56.1648419,-34.913075],[-56.1648445,-34.913142],[-56.1647988,-34.9131432],[-56.1647962,-34.9130762],[-56.1648419,-34.913075]]]}},{"type":"Feature","id":"way/332402799","properties":{"type":"way","id":332402799,"tags":{"addr:city":"Montevideo","addr:housenumber":"1497","addr:postcode":"11200","addr:street":"Constituyente","building":"public","building:levels":"6","name":"Dirección Nacional de Recursos Acuáticos","name:en":"National Direction of Aquatic Resources","name_1":"DINARA","phone":"+598 2400 4689","website":"www.dinara.gub.uy","wheelchair":"no"},"relations":[],"meta":{}},"geometry":{"type":"Polygon","coordinates":[[[-56.1832684,-34.9056651],[-56.1834025,-34.9054143],[-56.1834615,-34.9054011],[-56.1836225,-34.9054693],[-56.1836386,-34.9054429],[-56.1836708,-34.9054451],[-56.1835769,-34.9056563],[-56.1835474,-34.9056453],[-56.1835608,-34.9056299],[-56.1835098,-34.9056343],[-56.1835098,-34.9056145],[-56.183424,-34.9056211],[-56.183424,-34.9056585],[-56.1832684,-34.9056651]]]}},{"type":"Feature","id":"way/343220637","properties":{"type":"way","id":343220637,"tags":{"building":"yes"},"relations":[],"meta":{}},"geometry":{"type":"Polygon","coordinates":[[[-56.17646,-34.9134216],[-56.1764413,-34.9136845],[-56.175764,-34.913652],[-56.1757828,-34.9133891],[-56.17646,-34.9134216]]]}},{"type":"Feature","id":"way/357014718","properties":{"type":"way","id":357014718,"tags":{"addr:city":"Montevideo","addr:housenumber":"1476","addr:postcode":"11200","addr:street":"Constituyente","building":"yes","name":"Ministerio de Agrigultura, Ganadería y Pesca","office":"government","website":"http://www.mgap.gub.uy"},"relations":[],"meta":{}},"geometry":{"type":"Polygon","coordinates":[[[-56.1840016,-34.9062833],[-56.1836052,-34.9062543],[-56.1836441,-34.9058595],[-56.1840264,-34.905816],[-56.1840016,-34.9062833]]]}},{"type":"Feature","id":"way/360610896","properties":{"type":"way","id":360610896,"tags":{"access":"private","amenity":"parking","building":"yes","building:levels":"5","capacity":"358","fee":"no","lit":"yes","parking":"multi-storey","smoothness":"excellent","surface":"concrete"},"relations":[],"meta":{}},"geometry":{"type":"Polygon","coordinates":[[[-56.1948043,-34.8934879],[-56.1947764,-34.8937957],[-56.1942306,-34.8937627],[-56.194236,-34.8937162],[-56.1942198,-34.8937162],[-56.1942291,-34.8936348],[-56.1942585,-34.8936355],[-56.1942515,-34.8935611],[-56.1942841,-34.8934466],[-56.1943394,-34.893451],[-56.1948043,-34.8934879]]]}},{"type":"Feature","id":"way/360610897","properties":{"type":"way","id":360610897,"tags":{"building":"yes"},"relations":[],"meta":{}},"geometry":{"type":"Polygon","coordinates":[[[-56.1943301,-34.8932792],[-56.1939464,-34.8932522],[-56.1940012,-34.8926515],[-56.1941153,-34.892656],[-56.1941328,-34.8928251],[-56.1941777,-34.8929843],[-56.1942205,-34.8931039],[-56.1943301,-34.8932792]]]}},{"type":"Feature","id":"way/361341170","properties":{"type":"way","id":361341170,"tags":{"addr:city":"Montevideo","addr:country":"UY","addr:housenumber":"1474","addr:street":"Cebollatí","building":"commercial","building:levels":"5","name":"Mercosur Business Center"},"relations":[],"meta":{}},"geometry":{"type":"Polygon","coordinates":[[[-56.1825771,-34.9136145],[-56.1825677,-34.9138286],[-56.182398,-34.9138236],[-56.1824074,-34.9136095],[-56.1825771,-34.9136145]]]}},{"type":"Feature","id":"way/361341220","properties":{"type":"way","id":361341220,"tags":{"addr:city":"Montevideo","addr:country":"UY","addr:housenumber":"1473","addr:street":"La Cumparsita","building":"yes","building:levels":"5","name":"Hotel Ibis","tourism":"hotel"},"relations":[],"meta":{}},"geometry":{"type":"Polygon","coordinates":[[[-56.1825674,-34.9139051],[-56.182552,-34.9142584],[-56.1823925,-34.9142537],[-56.182408,-34.9139005],[-56.1825674,-34.9139051]]]}},{"type":"Feature","id":"way/361341221","properties":{"type":"way","id":361341221,"tags":{"building":"yes","building:levels":"4","name":"Correo Uruguayo"},"relations":[],"meta":{}},"geometry":{"type":"Polygon","coordinates":[[[-56.1828562,-34.9137615],[-56.1828342,-34.9141402],[-56.182614,-34.9141316],[-56.1826359,-34.9137529],[-56.1828562,-34.9137615]]]}},{"type":"Feature","id":"way/362595070","properties":{"type":"way","id":362595070,"tags":{"addr:city":"Montevideo","addr:country":"UY","addr:housenumber":"1389","addr:postcode":"11200","addr:street":"La Cumparsita","building":"apartments","name":"Edificio Tacuarí"},"relations":[],"meta":{}},"geometry":{"type":"Polygon","coordinates":[[[-56.1850353,-34.9142502],[-56.1850781,-34.9145181],[-56.1849717,-34.9145119],[-56.1849516,-34.9145078],[-56.1849215,-34.9144941],[-56.1848939,-34.9144639],[-56.1848806,-34.9144077],[-56.1848489,-34.9142727],[-56.1850353,-34.9142502]]]}},{"type":"Feature","id":"way/371231834","properties":{"type":"way","id":371231834,"tags":{"addr:city":"Montevideo","addr:housenumber":"1453","addr:postcode":"11200","addr:street":"Avenida 18 de Julio","building":"office","building:levels":"6","name":"Ministerio de Desarrollo Social","office":"government","old_name":"Banco de Crédito","opening_hours":"Mo-Fr 09:00-17:00","phone":"+598 2400 0302","short_name":"MIDES","smoking":"no","website":"http://www.mides.gub.uy/","wheelchair":"yes","wikipedia":"es:Ministerio de Desarrollo Social de Uruguay"},"relations":[],"meta":{}},"geometry":{"type":"Polygon","coordinates":[[[-56.185118,-34.9048682],[-56.1850394,-34.9053214],[-56.1847069,-34.9051943],[-56.1849864,-34.9048118],[-56.185118,-34.9048682]]]}},{"type":"Feature","id":"way/374979346","properties":{"type":"way","id":374979346,"tags":{"addr:city":"Montevideo","addr:postcode":"11000","addr:street":"Cerrito","amenity":"place_of_worship","building":"church","denomination":"roman_catholic","name":"Iglesia de San Francisco","religion":"christian"},"relations":[],"meta":{}},"geometry":{"type":"Polygon","coordinates":[[[-56.2090285,-34.9061013],[-56.2093336,-34.9061992],[-56.2091276,-34.9066309],[-56.2088225,-34.906533],[-56.2090285,-34.9061013]]]}},{"type":"Feature","id":"way/376520421","properties":{"type":"way","id":376520421,"tags":{"building":"office","name":"ANCAP","office":"company","todo":"Altura?"},"relations":[],"meta":{}},"geometry":{"type":"Polygon","coordinates":[[[-56.192917,-34.9013222],[-56.1928578,-34.9019033],[-56.1926618,-34.9019264],[-56.1924201,-34.9013883],[-56.1926773,-34.9013102],[-56.192917,-34.9013222]]]}},{"type":"Feature","id":"way/376520423","properties":{"type":"way","id":376520423,"tags":{"building":"office","name":"Banco de Seguros","office":"insurance","todo":"Altura?"},"relations":[],"meta":{}},"geometry":{"type":"Polygon","coordinates":[[[-56.1937797,-34.9037848],[-56.1936576,-34.9038028],[-56.1934091,-34.9033041],[-56.1934352,-34.9032567],[-56.193788,-34.9032775],[-56.1938353,-34.903327],[-56.1937797,-34.9037848]]]}},{"type":"Feature","id":"way/376524770","properties":{"type":"way","id":376524770,"tags":{"building":"apartments","building:levels":"23","name":"Parque Sábato"},"relations":[],"meta":{}},"geometry":{"type":"Polygon","coordinates":[[[-56.1515339,-34.9121956],[-56.1514286,-34.9123285],[-56.1512445,-34.9122305],[-56.1513498,-34.9120975],[-56.1515339,-34.9121956]]]}},{"type":"Feature","id":"way/380624911","properties":{"type":"way","id":380624911,"tags":{"building":"yes"},"relations":[],"meta":{}},"geometry":{"type":"Polygon","coordinates":[[[-56.2034756,-34.9093549],[-56.2033319,-34.9093498],[-56.2033438,-34.9091244],[-56.2034875,-34.9091295],[-56.2034756,-34.9093549]]]}},{"type":"Feature","id":"way/386344066","properties":{"type":"way","id":386344066,"tags":{"building":"office","building:levels":"3","name":"Palacio Estévez","office":"government","wikipedia":"es:Palacio Estévez"},"relations":[],"meta":{}},"geometry":{"type":"Polygon","coordinates":[[[-56.1996542,-34.9070621],[-56.199634,-34.9073337],[-56.1995965,-34.9073597],[-56.1992199,-34.907335],[-56.1992479,-34.9070353],[-56.1996542,-34.9070621]]]}},{"type":"Feature","id":"way/386344067","properties":{"type":"way","id":386344067,"tags":{"building":"yes","building:levels":"20","name":"Victoria Plaza Torre Sur"},"relations":[],"meta":{}},"geometry":{"type":"Polygon","coordinates":[[[-56.1997386,-34.9055807],[-56.1997093,-34.9058817],[-56.1993657,-34.9058572],[-56.1993993,-34.9055527],[-56.1997386,-34.9055807]]]}},{"type":"Feature","id":"node/1894757132","properties":{"type":"node","id":1894757132,"tags":{"entrance":"main"},"relations":[],"meta":{}},"geometry":{"type":"Point","coordinates":[-56.2011326,-34.9075751]}},{"type":"Feature","id":"node/1915835480","properties":{"type":"node","id":1915835480,"tags":{"entrance":"yes"},"relations":[],"meta":{}},"geometry":{"type":"Point","coordinates":[-56.1633275,-34.8977509]}},{"type":"Feature","id":"node/3651285386","properties":{"type":"node","id":3651285386,"tags":{"entrance":"main"},"relations":[],"meta":{}},"geometry":{"type":"Point","coordinates":[-56.1943394,-34.893451]}},{"type":"Feature","id":"node/4081341928","properties":{"type":"node","id":4081341928,"tags":{"entrance":"main"},"relations":[],"meta":{}},"geometry":{"type":"Point","coordinates":[-56.2013386,-34.9079303]}}]}